{"type":"FeatureCollection","features":[{"type":"Feature","geometry":{"type":"MultiPolygon","coordinates":[[[[-74.050508,40.566422],[-74.049984,40.566396],[-74.049316,40.565888],[-74.049236,40.565363],[-74.050026,40.565318],[-74.050744,40.565887],[-74.050736,40.566033],[-74.050906,40.566094],[-74.050913,40.566134],[-74.050882,40.566178],[-74.050834,40.566197],[-74.050708,40.566194],[-74.050683,40.566237],[-74.050679,40.566311],[-74.050696,40.566361],[-74.050734,40.566395],[-74.050884,40.566488],[-74.051039,40.566619],[-74.051075,40.566679],[-74.051072,40.566722],[-74.051049,40.566738],[-74.050917,40.566696],[-74.050759,40.566585],[-74.050667,40.56655],[-74.050508,40.566422]]],[[[-74.05314,40.577703],[-74.05406,40.577116],[-74.054898,40.577782],[-74.054693,40.579692],[-74.054851,40.579708],[-74.054846,40.579946],[-74.053686,40.580549],[-74.052932,40.579902],[-74.05314,40.577703]]],[[[-74.159456,40.641448],[-74.159748,40.641417],[-74.159979,40.641446],[-74.16015,40.641495],[-74.16047,40.641644],[-74.160696,40.64169],[-74.160778,40.641739],[-74.161025,40.641799],[-74.161112,40.641835],[-74.161182,40.641996],[-74.161184,40.642115],[-74.161221,40.642329],[-74.161228,40.642617],[-74.161541,40.643973],[-74.161534,40.644156],[-74.158098,40.643758],[-74.158081,40.643712],[-74.158024,40.643652],[-74.157558,40.64324],[-74.157674,40.643173],[-74.157812,40.643148],[-74.158006,40.643024],[-74.158075,40.642934],[-74.158127,40.642818],[-74.158142,40.642715],[-74.158199,40.642595],[-74.15833,40.642527],[-74.158527,40.6425],[-74.158587,40.64246],[-74.15861,40.642396],[-74.158686,40.642277],[-74.158811,40.641759],[-74.1592,40.64165],[-74.159456,40.641448]]],[[[-74.082213,40.64828],[-74.082124,40.648278],[-74.081866,40.648373],[-74.081652,40.648424],[-74.081422,40.648505],[-74.080728,40.648275],[-74.080518,40.648246],[-74.07981,40.648383],[-74.079233,40.648186],[-74.078995,40.648143],[-74.077087,40.6472],[-74.076993,40.647206],[-74.076829,40.647081],[-74.076507,40.646969],[-74.075992,40.646552],[-74.075308,40.645913],[-74.074453,40.645067],[-74.074078,40.645084],[-74.073958,40.645193],[-74.073591,40.644999],[-74.073499,40.645083],[-74.073759,40.645313],[-74.073801,40.645286],[-74.073829,40.645312],[-74.073779,40.645356],[-74.073857,40.645425],[-74.073338,40.645783],[-74.073245,40.645705],[-74.073487,40.64555],[-74.073418,40.645488],[-74.07369,40.645306],[-74.073464,40.645108],[-74.073333,40.645034],[-74.073349,40.645022],[-74.073239,40.644964],[-74.073057,40.645145],[-74.073025,40.645131],[-74.073202,40.644944],[-74.073012,40.644839],[-74.073056,40.644808],[-74.073414,40.645016],[-74.073426,40.645001],[-74.073273,40.644916],[-74.073345,40.64485],[-74.073122,40.644715],[-74.072926,40.644864],[-74.07288,40.644844],[-74.072799,40.64491],[-74.072588,40.644791],[-74.072703,40.644646],[-74.072692,40.644637],[-74.072596,40.644735],[-74.072565,40.64472],[-74.072612,40.644675],[-74.072599,40.644667],[-74.072573,40.644694],[-74.072526,40.64467],[-74.072576,40.644618],[-74.072627,40.644644],[-74.072623,40.644654],[-74.072666,40.644621],[-74.072532,40.644557],[-74.072586,40.64453],[-74.072599,40.644537],[-74.072584,40.644547],[-74.072725,40.644621],[-74.07279,40.644552],[-74.072746,40.644524],[-74.072783,40.644492],[-74.072698,40.644441],[-74.072331,40.6446],[-74.071707,40.645023],[-74.071716,40.645032],[-74.071687,40.64505],[-74.071658,40.645034],[-74.071682,40.645004],[-74.071687,40.645013],[-74.072309,40.644578],[-74.072256,40.644546],[-74.072161,40.644582],[-74.072018,40.644412],[-74.072113,40.644364],[-74.072098,40.644338],[-74.072292,40.644266],[-74.072185,40.64411],[-74.071977,40.644181],[-74.071962,40.64417],[-74.071861,40.644202],[-74.071756,40.644012],[-74.07187,40.643975],[-74.071863,40.643958],[-74.071938,40.643927],[-74.071948,40.643936],[-74.072058,40.6439],[-74.072001,40.643781],[-74.071793,40.643816],[-74.071771,40.643772],[-74.07165,40.643787],[-74.071589,40.643591],[-74.071628,40.643578],[-74.071597,40.64346],[-74.071356,40.643497],[-74.071341,40.643456],[-74.071491,40.643429],[-74.071473,40.64336],[-74.071502,40.643355],[-74.071482,40.643293],[-74.071443,40.643271],[-74.071417,40.643193],[-74.071143,40.643251],[-74.071131,40.643205],[-74.071503,40.643129],[-74.071478,40.642808],[-74.071645,40.6428],[-74.071649,40.64268],[-74.071703,40.64268],[-74.071704,40.642796],[-74.072184,40.642714],[-74.07211,40.642463],[-74.070374,40.642691],[-74.070329,40.642526],[-74.073238,40.642185],[-74.073144,40.641853],[-74.070247,40.642207],[-74.070194,40.642008],[-74.073087,40.641637],[-74.07289,40.640923],[-74.071963,40.640996],[-74.071982,40.641012],[-74.071805,40.641029],[-74.071811,40.641123],[-74.070018,40.641278],[-74.069984,40.641069],[-74.071776,40.640926],[-74.071786,40.640904],[-74.071818,40.64089],[-74.071836,40.640902],[-74.07285,40.640804],[-74.072777,40.640529],[-74.073077,40.640513],[-74.07309,40.638619],[-74.073033,40.638591],[-74.072929,40.638593],[-74.072926,40.638441],[-74.073016,40.638427],[-74.073014,40.638409],[-74.072932,40.638414],[-74.072923,40.638376],[-74.07267,40.638376],[-74.072588,40.638302],[-74.072582,40.638259],[-74.072609,40.638227],[-74.072389,40.638245],[-74.072379,40.638163],[-74.072606,40.638136],[-74.072573,40.637872],[-74.073484,40.637787],[-74.073456,40.637654],[-74.073534,40.637642],[-74.073487,40.637234],[-74.073373,40.636611],[-74.07251,40.636693],[-74.072504,40.636677],[-74.072396,40.636684],[-74.072396,40.636698],[-74.072104,40.636725],[-74.072095,40.636647],[-74.072411,40.636617],[-74.072411,40.636629],[-74.072507,40.636626],[-74.072504,40.63661],[-74.072823,40.63658],[-74.072829,40.636599],[-74.072901,40.636589],[-74.072901,40.636573],[-74.073223,40.636546],[-74.073231,40.636566],[-74.073316,40.636559],[-74.073358,40.636536],[-74.073039,40.634798],[-74.072908,40.633634],[-74.073328,40.632058],[-74.072985,40.630309],[-74.068022,40.628788],[-74.06813,40.628539],[-74.072912,40.629996],[-74.072928,40.629957],[-74.072513,40.627769],[-74.072458,40.627709],[-74.072455,40.627645],[-74.072399,40.627631],[-74.072295,40.627138],[-74.072975,40.627109],[-74.073166,40.627065],[-74.073192,40.627071],[-74.073496,40.626968],[-74.073549,40.626926],[-74.073516,40.626864],[-74.073527,40.626863],[-74.073487,40.626848],[-74.072881,40.626929],[-74.072705,40.626874],[-74.072255,40.624609],[-74.071235,40.623093],[-74.071147,40.62292],[-74.071062,40.622793],[-74.070989,40.622709],[-74.070917,40.622656],[-74.07072,40.622577],[-74.070587,40.622381],[-74.070568,40.622281],[-74.070506,40.622204],[-74.070448,40.622089],[-74.070337,40.621978],[-74.070243,40.621792],[-74.070168,40.621721],[-74.070087,40.621608],[-74.070065,40.62151],[-74.070027,40.621454],[-74.069983,40.621418],[-74.069904,40.621439],[-74.06988,40.621405],[-74.069906,40.621388],[-74.069898,40.621351],[-74.069878,40.621351],[-74.069858,40.621319],[-74.06984,40.621323],[-74.069771,40.621269],[-74.069784,40.621247],[-74.069755,40.621208],[-74.069463,40.621087],[-74.069213,40.620903],[-74.069225,40.620892],[-74.066692,40.619086],[-74.066657,40.619016],[-74.066493,40.618898],[-74.065961,40.619359],[-74.06591,40.619316],[-74.06641,40.618864],[-74.066199,40.618722],[-74.065573,40.619275],[-74.065446,40.619203],[-74.066682,40.618067],[-74.066416,40.617872],[-74.06605,40.618195],[-74.065699,40.617956],[-74.065465,40.618107],[-74.064962,40.617772],[-74.064357,40.618246],[-74.064257,40.618172],[-74.065099,40.617511],[-74.064437,40.617062],[-74.064012,40.617402],[-74.063909,40.617329],[-74.064327,40.616989],[-74.064198,40.616901],[-74.063868,40.616858],[-74.063761,40.616799],[-74.063736,40.616771],[-74.06373,40.616728],[-74.063767,40.616604],[-74.06356,40.616444],[-74.06288,40.615744],[-74.061833,40.614787],[-74.06144,40.614378],[-74.061039,40.613591],[-74.060809,40.613032],[-74.060738,40.613047],[-74.060649,40.612808],[-74.060674,40.612578],[-74.060595,40.612252],[-74.06054,40.612149],[-74.060337,40.611902],[-74.059854,40.612103],[-74.060047,40.612722],[-74.060004,40.612727],[-74.060016,40.612764],[-74.060198,40.612786],[-74.060196,40.612802],[-74.059999,40.612784],[-74.059769,40.612057],[-74.060272,40.61182],[-74.060078,40.61183],[-74.059901,40.611749],[-74.059533,40.611714],[-74.059476,40.611691],[-74.059431,40.611654],[-74.059114,40.611254],[-74.058922,40.611056],[-74.058901,40.611002],[-74.058927,40.610938],[-74.059046,40.61089],[-74.059123,40.610822],[-74.059122,40.610738],[-74.059086,40.610634],[-74.058579,40.610049],[-74.05848,40.610011],[-74.058477,40.609927],[-74.058327,40.609768],[-74.057762,40.609326],[-74.057164,40.608743],[-74.057134,40.608636],[-74.057033,40.608474],[-74.056966,40.60827],[-74.056772,40.6079],[-74.05666,40.607556],[-74.056496,40.607248],[-74.056407,40.607189],[-74.05601,40.606781],[-74.055521,40.606483],[-74.055379,40.606494],[-74.055287,40.606539],[-74.05516,40.60673],[-74.054989,40.606661],[-74.054999,40.606646],[-74.055034,40.60666],[-74.055052,40.606634],[-74.05502,40.606621],[-74.055056,40.606569],[-74.055104,40.606588],[-74.055182,40.606475],[-74.05518,40.606402],[-74.055153,40.606329],[-74.05506,40.606265],[-74.053811,40.605913],[-74.053607,40.605239],[-74.05402,40.604935],[-74.053696,40.604148],[-74.053671,40.604005],[-74.05354,40.603634],[-74.053205,40.60206],[-74.053087,40.601802],[-74.053047,40.601623],[-74.053033,40.601466],[-74.053048,40.601336],[-74.053096,40.601211],[-74.053319,40.601011],[-74.053388,40.600869],[-74.053427,40.600699],[-74.053422,40.600516],[-74.05319,40.600281],[-74.0528,40.600061],[-74.052403,40.599869],[-74.052254,40.599851],[-74.05223,40.599824],[-74.052228,40.599776],[-74.052245,40.599748],[-74.052325,40.599715],[-74.052492,40.599737],[-74.052607,40.599815],[-74.052717,40.599854],[-74.052794,40.599873],[-74.052872,40.599867],[-74.053097,40.599731],[-74.054341,40.598819],[-74.054312,40.598778],[-74.054336,40.59876],[-74.054474,40.598756],[-74.057194,40.596395],[-74.059727,40.593908],[-74.059747,40.593849],[-74.059641,40.593709],[-74.059663,40.593703],[-74.059767,40.593835],[-74.060554,40.59338],[-74.062153,40.592025],[-74.065033,40.588991],[-74.065033,40.588909],[-74.06436,40.588268],[-74.064409,40.588239],[-74.064588,40.588403],[-74.064706,40.588473],[-74.064778,40.588488],[-74.065938,40.587606],[-74.067223,40.586734],[-74.069335,40.584777],[-74.069808,40.584304],[-74.070212,40.583981],[-74.070963,40.583182],[-74.071448,40.582434],[-74.071492,40.582169],[-74.070595,40.581691],[-74.070658,40.581626],[-74.071467,40.582027],[-74.071776,40.581877],[-74.073354,40.580679],[-74.073833,40.580277],[-74.074994,40.579237],[-74.074929,40.579171],[-74.074823,40.579099],[-74.074589,40.579024],[-74.07441,40.578878],[-74.07415,40.578792],[-74.073972,40.578647],[-74.073709,40.578559],[-74.07359,40.578454],[-74.073506,40.578402],[-74.073452,40.578381],[-74.073378,40.578459],[-74.07332,40.578457],[-74.073303,40.578424],[-74.073348,40.578363],[-74.073341,40.578309],[-74.073361,40.578275],[-74.073442,40.57825],[-74.073503,40.578197],[-74.073551,40.578198],[-74.073575,40.578236],[-74.073497,40.578328],[-74.075083,40.57916],[-74.075798,40.578309],[-74.075235,40.577999],[-74.075346,40.577888],[-74.076016,40.578245],[-74.076399,40.577995],[-74.076408,40.577975],[-74.076305,40.57792],[-74.076297,40.577899],[-74.076455,40.577963],[-74.076493,40.577961],[-74.076584,40.577849],[-74.076723,40.577731],[-74.076882,40.577637],[-74.076916,40.57758],[-74.076737,40.577373],[-74.076748,40.577367],[-74.076898,40.577516],[-74.076939,40.577534],[-74.077375,40.577282],[-74.078302,40.576465],[-74.078774,40.576011],[-74.079263,40.575671],[-74.078679,40.575082],[-74.078752,40.575042],[-74.079336,40.575627],[-74.080179,40.57518],[-74.080503,40.57498],[-74.080907,40.57469],[-74.081338,40.57432],[-74.082592,40.57315],[-74.083006,40.572786],[-74.083599,40.572371],[-74.084691,40.571478],[-74.085953,40.570298],[-74.086549,40.569632],[-74.086913,40.568986],[-74.086192,40.568565],[-74.086216,40.568533],[-74.087251,40.569082],[-74.088304,40.56833],[-74.088523,40.56807],[-74.089203,40.567174],[-74.08914,40.567133],[-74.089249,40.567016],[-74.089983,40.56738],[-74.09055,40.567084],[-74.090999,40.566737],[-74.091238,40.566507],[-74.09405,40.562982],[-74.093996,40.562806],[-74.094071,40.562732],[-74.095111,40.563173],[-74.095241,40.563148],[-74.095424,40.563155],[-74.095683,40.562919],[-74.095663,40.562819],[-74.095672,40.562776],[-74.095761,40.562732],[-74.095887,40.562725],[-74.096118,40.562588],[-74.096614,40.562087],[-74.09687,40.561718],[-74.096982,40.561476],[-74.097025,40.561336],[-74.097088,40.561255],[-74.097234,40.56112],[-74.09742,40.560884],[-74.097888,40.560169],[-74.097993,40.559967],[-74.098044,40.559913],[-74.09812,40.559893],[-74.098198,40.559836],[-74.098273,40.559549],[-74.09829,40.559333],[-74.098087,40.559203],[-74.097999,40.559186],[-74.097832,40.55912],[-74.097797,40.559087],[-74.097821,40.559053],[-74.097848,40.559034],[-74.097932,40.559041],[-74.098659,40.559408],[-74.098764,40.559424],[-74.099095,40.559259],[-74.099328,40.559097],[-74.099296,40.559005],[-74.09938,40.558964],[-74.099869,40.559094],[-74.100212,40.558871],[-74.1008,40.558322],[-74.101244,40.557661],[-74.101846,40.556217],[-74.10184,40.555945],[-74.101375,40.555692],[-74.101346,40.555626],[-74.101354,40.555583],[-74.101405,40.555539],[-74.101474,40.555534],[-74.102651,40.556134],[-74.103098,40.555905],[-74.103858,40.555118],[-74.104659,40.55412],[-74.105089,40.553235],[-74.104862,40.55308],[-74.104844,40.553026],[-74.104915,40.553016],[-74.105095,40.553129],[-74.106428,40.553853],[-74.106434,40.55397],[-74.106401,40.554061],[-74.106413,40.554108],[-74.106482,40.554157],[-74.106564,40.554187],[-74.107047,40.554195],[-74.107348,40.554148],[-74.107686,40.553977],[-74.108539,40.553258],[-74.109226,40.552606],[-74.110285,40.551496],[-74.111203,40.55019],[-74.112788,40.547884],[-74.11301,40.54778],[-74.113383,40.548073],[-74.113748,40.548019],[-74.113874,40.548091],[-74.114738,40.547997],[-74.114972,40.547895],[-74.115268,40.547571],[-74.115359,40.54753],[-74.115462,40.547515],[-74.115614,40.547544],[-74.115698,40.547648],[-74.115807,40.547739],[-74.115937,40.547812],[-74.11608,40.547865],[-74.116312,40.547899],[-74.116545,40.547872],[-74.11708,40.547567],[-74.1173,40.547464],[-74.11766,40.547356],[-74.118041,40.547307],[-74.118295,40.547109],[-74.118633,40.546785],[-74.118827,40.546552],[-74.119077,40.546183],[-74.119344,40.54585],[-74.119551,40.54563],[-74.119778,40.54547],[-74.12005,40.545358],[-74.120468,40.545279],[-74.121065,40.545327],[-74.121335,40.545316],[-74.121601,40.545278],[-74.121858,40.545212],[-74.1221,40.545119],[-74.122214,40.545063],[-74.1225,40.544858],[-74.124244,40.54311],[-74.125751,40.541305],[-74.126382,40.540521],[-74.127624,40.538718],[-74.130712,40.534535],[-74.133564,40.531511],[-74.136188,40.529621],[-74.136908,40.529282],[-74.137285,40.52974],[-74.137438,40.529676],[-74.13804,40.52967],[-74.138251,40.529691],[-74.138456,40.529736],[-74.138651,40.529802],[-74.13883,40.529889],[-74.138883,40.529961],[-74.138967,40.530112],[-74.139018,40.530271],[-74.139036,40.530434],[-74.138999,40.530678],[-74.139002,40.530922],[-74.139068,40.531285],[-74.139151,40.53152],[-74.139204,40.531635],[-74.14027,40.5333],[-74.140611,40.534131],[-74.140628,40.534359],[-74.140609,40.534587],[-74.140482,40.535081],[-74.14037,40.535307],[-74.140256,40.535444],[-74.140097,40.535485],[-74.139985,40.535486],[-74.139482,40.535364],[-74.138859,40.535259],[-74.138437,40.535219],[-74.138012,40.535203],[-74.135768,40.535232],[-74.135296,40.535263],[-74.134826,40.5353],[-74.1341,40.535494],[-74.133671,40.535724],[-74.133407,40.535898],[-74.133026,40.53624],[-74.133383,40.536324],[-74.133369,40.536356],[-74.133012,40.536256],[-74.132971,40.536295],[-74.133172,40.536355],[-74.133161,40.536374],[-74.133091,40.536353],[-74.133076,40.536397],[-74.132943,40.536322],[-74.131195,40.537872],[-74.131283,40.537933],[-74.131513,40.537711],[-74.131526,40.537719],[-74.131354,40.537872],[-74.131377,40.537887],[-74.131293,40.537957],[-74.131814,40.538307],[-74.132112,40.538052],[-74.131766,40.537817],[-74.131695,40.537879],[-74.131684,40.537871],[-74.131698,40.537857],[-74.131846,40.537735],[-74.131857,40.537743],[-74.131785,40.537802],[-74.132136,40.538033],[-74.132424,40.537775],[-74.131998,40.537481],[-74.131922,40.53754],[-74.131912,40.537533],[-74.13208,40.537395],[-74.132093,40.537405],[-74.132018,40.537465],[-74.132453,40.53776],[-74.132755,40.537505],[-74.132322,40.537205],[-74.132247,40.53727],[-74.132236,40.537263],[-74.132398,40.537119],[-74.132409,40.537126],[-74.132338,40.537188],[-74.132776,40.537484],[-74.133074,40.537229],[-74.132647,40.536937],[-74.132558,40.536991],[-74.132736,40.536855],[-74.132743,40.536861],[-74.132667,40.53692],[-74.133095,40.537212],[-74.133392,40.536958],[-74.132956,40.536661],[-74.132886,40.536726],[-74.132874,40.53672],[-74.133035,40.536575],[-74.133044,40.536581],[-74.132973,40.536643],[-74.13341,40.53694],[-74.13369,40.536703],[-74.133666,40.536688],[-74.133808,40.536562],[-74.133861,40.536598],[-74.131048,40.538998],[-74.130076,40.539845],[-74.130083,40.539859],[-74.129969,40.539968],[-74.129938,40.539947],[-74.130209,40.539703],[-74.129764,40.539415],[-74.129694,40.539478],[-74.129684,40.539472],[-74.129846,40.539327],[-74.129858,40.539335],[-74.129784,40.539399],[-74.130228,40.539684],[-74.130522,40.539426],[-74.130084,40.539118],[-74.130011,40.53918],[-74.130003,40.539172],[-74.130169,40.539033],[-74.130178,40.53904],[-74.130105,40.539102],[-74.130542,40.539409],[-74.130839,40.539148],[-74.130407,40.538847],[-74.130334,40.538909],[-74.130322,40.5389],[-74.130485,40.538759],[-74.130496,40.538766],[-74.130425,40.53883],[-74.130859,40.539131],[-74.131153,40.538874],[-74.130719,40.538581],[-74.130648,40.538642],[-74.130638,40.538635],[-74.130654,40.538617],[-74.1308,40.538492],[-74.130811,40.5385],[-74.130738,40.538564],[-74.131174,40.538855],[-74.131474,40.538598],[-74.131039,40.538305],[-74.130967,40.538368],[-74.130957,40.538361],[-74.130975,40.538342],[-74.13112,40.538219],[-74.131131,40.538227],[-74.131059,40.538289],[-74.131497,40.538581],[-74.131794,40.538326],[-74.131165,40.5379],[-74.128816,40.539986],[-74.128787,40.539963],[-74.128447,40.540249],[-74.127987,40.540711],[-74.127709,40.541149],[-74.127563,40.541454],[-74.127461,40.541745],[-74.127406,40.542019],[-74.127388,40.542295],[-74.127407,40.542572],[-74.127488,40.5429],[-74.127601,40.543223],[-74.12767,40.543381],[-74.1277,40.543374],[-74.127731,40.543423],[-74.127898,40.543366],[-74.127868,40.543315],[-74.127886,40.543308],[-74.127928,40.543373],[-74.127567,40.543499],[-74.12763,40.543609],[-74.12799,40.543484],[-74.128031,40.543551],[-74.128011,40.543557],[-74.12798,40.543509],[-74.127819,40.543564],[-74.128085,40.543961],[-74.128382,40.544345],[-74.129019,40.545059],[-74.129546,40.545576],[-74.129872,40.545828],[-74.130261,40.546054],[-74.130727,40.546255],[-74.131327,40.546459],[-74.132004,40.546641],[-74.132746,40.546788],[-74.133259,40.546847],[-74.133643,40.546855],[-74.134178,40.546813],[-74.134756,40.546721],[-74.135423,40.546574],[-74.135857,40.546452],[-74.136412,40.546252],[-74.136491,40.546073],[-74.136459,40.545975],[-74.136516,40.545915],[-74.136806,40.54597],[-74.136971,40.545975],[-74.137064,40.545957],[-74.137009,40.545895],[-74.137023,40.545885],[-74.137096,40.545952],[-74.137133,40.545931],[-74.137063,40.545864],[-74.13718,40.545793],[-74.137143,40.545774],[-74.136261,40.544963],[-74.136134,40.545039],[-74.136115,40.54502],[-74.136384,40.544855],[-74.136403,40.544874],[-74.136284,40.544947],[-74.137193,40.545784],[-74.137508,40.545578],[-74.13748,40.545565],[-74.136734,40.544804],[-74.136612,40.544862],[-74.136589,40.544845],[-74.136873,40.544683],[-74.136891,40.544699],[-74.136749,40.544783],[-74.137424,40.545466],[-74.137433,40.545461],[-74.137416,40.545443],[-74.137472,40.545411],[-74.137488,40.545428],[-74.137503,40.54542],[-74.13753,40.545448],[-74.137447,40.545494],[-74.137885,40.545894],[-74.13795,40.546],[-74.138225,40.545795],[-74.138293,40.545706],[-74.138411,40.545606],[-74.13856,40.545532],[-74.138686,40.545436],[-74.138784,40.545323],[-74.13887,40.54513],[-74.138695,40.544991],[-74.138743,40.544945],[-74.138722,40.544929],[-74.138104,40.544499],[-74.138041,40.544548],[-74.137624,40.544254],[-74.137756,40.544145],[-74.13778,40.544163],[-74.137679,40.544259],[-74.138028,40.544506],[-74.138101,40.544459],[-74.138735,40.544905],[-74.138755,40.544934],[-74.13902,40.544716],[-74.13799,40.54399],[-74.137894,40.54407],[-74.137868,40.544053],[-74.138043,40.543905],[-74.138066,40.54392],[-74.13801,40.543971],[-74.139033,40.544705],[-74.139539,40.544295],[-74.139433,40.544217],[-74.139108,40.544473],[-74.139145,40.54451],[-74.139033,40.544428],[-74.139041,40.544421],[-74.139093,40.544461],[-74.139421,40.544206],[-74.139288,40.544117],[-74.138975,40.544376],[-74.138907,40.544329],[-74.138918,40.54432],[-74.138972,40.544349],[-74.139157,40.544198],[-74.139214,40.544135],[-74.139246,40.544122],[-74.139196,40.544085],[-74.13922,40.544067],[-74.139083,40.543968],[-74.138839,40.544174],[-74.138897,40.544226],[-74.138876,40.544244],[-74.138728,40.54413],[-74.138746,40.544116],[-74.138807,40.544163],[-74.138828,40.544159],[-74.139042,40.543975],[-74.139078,40.54396],[-74.138835,40.543791],[-74.138538,40.544041],[-74.138598,40.544096],[-74.138586,40.544105],[-74.138415,40.543978],[-74.138423,40.54397],[-74.138512,40.544024],[-74.138823,40.543784],[-74.13854,40.543588],[-74.138448,40.543679],[-74.138474,40.543705],[-74.138462,40.543715],[-74.138378,40.54365],[-74.138356,40.543652],[-74.138207,40.543774],[-74.138206,40.543789],[-74.138293,40.543854],[-74.13828,40.543867],[-74.138151,40.543772],[-74.138365,40.543602],[-74.138439,40.543642],[-74.138526,40.543579],[-74.138507,40.543565],[-74.138441,40.54362],[-74.138411,40.543598],[-74.138483,40.543539],[-74.138447,40.543516],[-74.138375,40.543577],[-74.138342,40.543552],[-74.138523,40.543402],[-74.138556,40.543424],[-74.13846,40.543506],[-74.138493,40.543531],[-74.13859,40.54345],[-74.13862,40.543473],[-74.138533,40.543544],[-74.13957,40.544272],[-74.139837,40.544052],[-74.138946,40.543407],[-74.13891,40.543432],[-74.138706,40.543291],[-74.138906,40.543132],[-74.13893,40.54315],[-74.138771,40.543291],[-74.138861,40.543366],[-74.139037,40.543227],[-74.139061,40.543245],[-74.138944,40.543339],[-74.138996,40.543373],[-74.138984,40.543384],[-74.139676,40.543889],[-74.139865,40.543737],[-74.139889,40.543752],[-74.139704,40.543909],[-74.139865,40.544027],[-74.140041,40.543884],[-74.139994,40.543846],[-74.140013,40.54383],[-74.140311,40.54405],[-74.140359,40.544017],[-74.140386,40.544033],[-74.140418,40.544003],[-74.140395,40.543989],[-74.140461,40.543932],[-74.140309,40.543825],[-74.140328,40.543802],[-74.140297,40.543793],[-74.140248,40.543834],[-74.140235,40.543826],[-74.140285,40.543772],[-74.13935,40.543096],[-74.139242,40.543182],[-74.13922,40.543166],[-74.139408,40.543017],[-74.139434,40.543036],[-74.139385,40.543089],[-74.140226,40.543696],[-74.140296,40.54364],[-74.140126,40.543513],[-74.140287,40.543385],[-74.139458,40.542786],[-74.139387,40.542844],[-74.139361,40.542826],[-74.139537,40.542682],[-74.139564,40.5427],[-74.139479,40.542768],[-74.140306,40.543367],[-74.140627,40.543113],[-74.139756,40.542481],[-74.139659,40.542561],[-74.139632,40.542541],[-74.139859,40.542357],[-74.139886,40.542376],[-74.139775,40.542464],[-74.140646,40.543094],[-74.140845,40.542939],[-74.141044,40.543087],[-74.141091,40.543052],[-74.140967,40.542963],[-74.140984,40.542949],[-74.141257,40.54315],[-74.141324,40.543094],[-74.140385,40.542421],[-74.140438,40.542382],[-74.140407,40.542361],[-74.140287,40.542456],[-74.140165,40.542366],[-74.140335,40.542228],[-74.140359,40.542245],[-74.140207,40.542365],[-74.140286,40.542422],[-74.140407,40.542327],[-74.140481,40.542382],[-74.140427,40.542425],[-74.141297,40.543061],[-74.141334,40.543086],[-74.141411,40.543022],[-74.141079,40.542791],[-74.141161,40.542719],[-74.141067,40.542654],[-74.141084,40.542639],[-74.141295,40.542769],[-74.141327,40.542747],[-74.141124,40.542605],[-74.141143,40.542588],[-74.141249,40.54266],[-74.141335,40.542589],[-74.141316,40.542575],[-74.141286,40.542599],[-74.14122,40.542556],[-74.14125,40.542531],[-74.140569,40.542053],[-74.140541,40.542058],[-74.140464,40.542127],[-74.140413,40.542091],[-74.140405,40.542061],[-74.140263,40.541962],[-74.140295,40.541934],[-74.140475,40.54206],[-74.140496,40.542061],[-74.14068,40.541909],[-74.140704,40.541925],[-74.140595,40.542017],[-74.140634,40.542042],[-74.140619,40.542056],[-74.141349,40.542578],[-74.141462,40.542484],[-74.141277,40.542353],[-74.141294,40.542336],[-74.141481,40.542468],[-74.141531,40.542426],[-74.141349,40.54229],[-74.141363,40.542278],[-74.14155,40.542411],[-74.141797,40.5422],[-74.140895,40.541571],[-74.140887,40.541584],[-74.140846,40.541556],[-74.140661,40.541709],[-74.14064,40.541695],[-74.140958,40.541432],[-74.14098,40.541448],[-74.140896,40.541517],[-74.140895,40.541537],[-74.141813,40.542187],[-74.141852,40.542152],[-74.141873,40.542167],[-74.141672,40.542335],[-74.141692,40.542348],[-74.141862,40.542357],[-74.142135,40.542241],[-74.142168,40.542251],[-74.142234,40.542307],[-74.142299,40.542252],[-74.142294,40.542202],[-74.142228,40.542138],[-74.142186,40.54206],[-74.142183,40.542018],[-74.142202,40.541957],[-74.142352,40.541681],[-74.142324,40.54159],[-74.142338,40.541513],[-74.14246,40.54139],[-74.142477,40.541334],[-74.142404,40.541199],[-74.142204,40.540962],[-74.1422,40.540894],[-74.142268,40.540808],[-74.142194,40.540742],[-74.142042,40.54065],[-74.142026,40.540592],[-74.142075,40.540513],[-74.141993,40.540403],[-74.141908,40.540364],[-74.141905,40.540217],[-74.141856,40.540149],[-74.141777,40.540088],[-74.141787,40.54005],[-74.141856,40.540033],[-74.141887,40.539987],[-74.141882,40.539932],[-74.141836,40.539808],[-74.141841,40.539746],[-74.14189,40.539694],[-74.141984,40.539662],[-74.142007,40.539621],[-74.142005,40.539568],[-74.141982,40.539536],[-74.141767,40.539387],[-74.141729,40.539339],[-74.141764,40.539276],[-74.141888,40.53921],[-74.142219,40.539139],[-74.142304,40.53907],[-74.142237,40.539031],[-74.142338,40.538949],[-74.141766,40.538542],[-74.142265,40.53814],[-74.142249,40.53813],[-74.141868,40.538444],[-74.141838,40.538422],[-74.14223,40.538114],[-74.142079,40.538004],[-74.142167,40.537933],[-74.141219,40.537254],[-74.141198,40.537254],[-74.141067,40.537366],[-74.141042,40.537347],[-74.141298,40.537138],[-74.141321,40.537154],[-74.141237,40.537216],[-74.141241,40.537235],[-74.142176,40.537895],[-74.142162,40.537902],[-74.142186,40.537918],[-74.14239,40.537753],[-74.141583,40.537088],[-74.141734,40.53704],[-74.143052,40.53724],[-74.143834,40.537137],[-74.143991,40.53701],[-74.144183,40.536794],[-74.144278,40.536636],[-74.144297,40.536528],[-74.144374,40.536395],[-74.144555,40.535947],[-74.144741,40.535801],[-74.144789,40.535791],[-74.145098,40.535829],[-74.145434,40.535823],[-74.145735,40.535668],[-74.145855,40.535642],[-74.14602,40.535554],[-74.14595,40.535432],[-74.145997,40.53539],[-74.146192,40.535362],[-74.146696,40.535414],[-74.147019,40.535243],[-74.147943,40.534923],[-74.149217,40.534242],[-74.149777,40.533888],[-74.149778,40.533826],[-74.149718,40.533492],[-74.149758,40.533424],[-74.149862,40.533299],[-74.150129,40.533087],[-74.1503,40.532923],[-74.150263,40.532903],[-74.150242,40.532918],[-74.150215,40.532897],[-74.150268,40.532857],[-74.150293,40.532876],[-74.150279,40.532892],[-74.150315,40.532908],[-74.150465,40.532734],[-74.150696,40.532546],[-74.15112,40.532741],[-74.15145,40.532595],[-74.151758,40.532402],[-74.151764,40.532373],[-74.15169,40.532311],[-74.151682,40.532276],[-74.151853,40.532164],[-74.151951,40.532153],[-74.152044,40.532179],[-74.15212,40.532178],[-74.152192,40.532159],[-74.152348,40.532083],[-74.152457,40.532068],[-74.154001,40.530832],[-74.154008,40.53081],[-74.153903,40.53071],[-74.153898,40.530674],[-74.153942,40.530664],[-74.154104,40.530761],[-74.154311,40.530593],[-74.154264,40.530534],[-74.154498,40.530318],[-74.154587,40.530358],[-74.154628,40.530354],[-74.154698,40.530249],[-74.154497,40.530102],[-74.154544,40.530062],[-74.154929,40.530225],[-74.155268,40.529998],[-74.155469,40.529827],[-74.155648,40.529643],[-74.155471,40.529478],[-74.155504,40.529438],[-74.155732,40.529601],[-74.15599,40.52942],[-74.156331,40.529113],[-74.15643,40.529003],[-74.156449,40.528932],[-74.156134,40.528649],[-74.156187,40.528611],[-74.156671,40.528993],[-74.156769,40.529023],[-74.157019,40.528978],[-74.157209,40.528842],[-74.157898,40.528529],[-74.158261,40.5283],[-74.157949,40.528085],[-74.157972,40.528067],[-74.158326,40.528278],[-74.158677,40.528098],[-74.158902,40.527936],[-74.159171,40.52767],[-74.159283,40.527512],[-74.159395,40.527428],[-74.159701,40.527296],[-74.159883,40.527369],[-74.160056,40.527345],[-74.160131,40.527402],[-74.160232,40.52753],[-74.160265,40.527553],[-74.160304,40.527556],[-74.161582,40.527013],[-74.161691,40.527024],[-74.161967,40.527104],[-74.162226,40.527202],[-74.162272,40.527194],[-74.16244,40.527095],[-74.162895,40.52689],[-74.163126,40.526761],[-74.163227,40.526675],[-74.163468,40.526528],[-74.16372,40.52635],[-74.163886,40.526325],[-74.163935,40.526283],[-74.16454,40.525989],[-74.165542,40.52542],[-74.16624,40.525188],[-74.166579,40.525017],[-74.166905,40.524831],[-74.168844,40.523591],[-74.169448,40.523328],[-74.169997,40.523046],[-74.170146,40.523008],[-74.170332,40.523013],[-74.170508,40.523049],[-74.170605,40.523102],[-74.17066,40.523162],[-74.170977,40.523373],[-74.171088,40.523432],[-74.171287,40.523458],[-74.171358,40.523453],[-74.171963,40.523258],[-74.172697,40.522969],[-74.173426,40.522569],[-74.176012,40.520876],[-74.17762,40.51933],[-74.1776,40.519327],[-74.1776,40.519309],[-74.17755,40.519272],[-74.177583,40.519231],[-74.177608,40.519234],[-74.177719,40.519333],[-74.177787,40.519364],[-74.178271,40.519924],[-74.178319,40.519946],[-74.178702,40.520028],[-74.178861,40.520044],[-74.179021,40.520036],[-74.179244,40.519984],[-74.179273,40.520009],[-74.179298,40.520158],[-74.179391,40.520278],[-74.17981,40.520552],[-74.179993,40.520581],[-74.180505,40.520586],[-74.181052,40.520663],[-74.181165,40.520656],[-74.18182,40.520478],[-74.181922,40.520418],[-74.182041,40.520434],[-74.182435,40.520318],[-74.182883,40.520124],[-74.183169,40.519906],[-74.183323,40.519856],[-74.183368,40.51986],[-74.183424,40.51989],[-74.183813,40.519752],[-74.184037,40.519619],[-74.184285,40.519578],[-74.184831,40.519341],[-74.185887,40.518636],[-74.186567,40.518116],[-74.18762,40.517099],[-74.187989,40.516797],[-74.188499,40.516313],[-74.188951,40.515797],[-74.189269,40.515345],[-74.188846,40.515105],[-74.188843,40.515087],[-74.188858,40.515082],[-74.189451,40.515349],[-74.189586,40.51536],[-74.189712,40.51532],[-74.191581,40.513341],[-74.191669,40.513189],[-74.191789,40.513052],[-74.191939,40.512932],[-74.192209,40.512794],[-74.193443,40.511567],[-74.193805,40.511119],[-74.194096,40.510641],[-74.195213,40.509978],[-74.195935,40.509856],[-74.196222,40.509864],[-74.196499,40.509924],[-74.196702,40.510008],[-74.196919,40.510133],[-74.197483,40.510506],[-74.197979,40.510871],[-74.198181,40.510988],[-74.198608,40.511197],[-74.198838,40.511284],[-74.199081,40.511348],[-74.199333,40.511385],[-74.199557,40.511386],[-74.199672,40.511427],[-74.199818,40.511603],[-74.199927,40.511828],[-74.199949,40.511906],[-74.19993,40.512011],[-74.199944,40.512116],[-74.200025,40.512262],[-74.200068,40.512379],[-74.20008,40.512499],[-74.200059,40.512619],[-74.200037,40.512678],[-74.199902,40.512722],[-74.198926,40.512777],[-74.199073,40.513084],[-74.199187,40.513093],[-74.199254,40.513042],[-74.199286,40.512996],[-74.199438,40.513017],[-74.199593,40.51301],[-74.199814,40.512947],[-74.199957,40.51293],[-74.2001,40.51294],[-74.200273,40.512996],[-74.200455,40.51303],[-74.200642,40.513042],[-74.200829,40.513031],[-74.202681,40.512739],[-74.204797,40.512294],[-74.20491,40.51228],[-74.205196,40.512331],[-74.205305,40.512326],[-74.207569,40.511856],[-74.207996,40.511718],[-74.208606,40.511463],[-74.209173,40.511155],[-74.209688,40.510797],[-74.209278,40.510483],[-74.209221,40.510524],[-74.20919,40.510499],[-74.209322,40.510399],[-74.209358,40.510422],[-74.209302,40.510462],[-74.209714,40.510778],[-74.209853,40.510672],[-74.210135,40.510417],[-74.210519,40.509991],[-74.210841,40.509536],[-74.211106,40.50904],[-74.211165,40.508989],[-74.211309,40.508914],[-74.211357,40.508838],[-74.211599,40.508567],[-74.211803,40.508296],[-74.211819,40.508262],[-74.211784,40.508198],[-74.211792,40.508173],[-74.211893,40.508175],[-74.211987,40.508104],[-74.212121,40.507966],[-74.21223,40.507815],[-74.212273,40.507735],[-74.212257,40.507702],[-74.212271,40.507668],[-74.212412,40.507629],[-74.212521,40.507477],[-74.212632,40.507359],[-74.21296,40.507122],[-74.213382,40.506766],[-74.213532,40.506592],[-74.213514,40.506474],[-74.213531,40.506397],[-74.213608,40.506425],[-74.213808,40.506596],[-74.213855,40.506607],[-74.214343,40.506519],[-74.214663,40.50635],[-74.215108,40.50606],[-74.215658,40.505617],[-74.215912,40.505371],[-74.216137,40.50511],[-74.216416,40.504692],[-74.217355,40.503643],[-74.217526,40.50338],[-74.217582,40.503341],[-74.217666,40.503333],[-74.217792,40.503372],[-74.217946,40.50336],[-74.218038,40.503324],[-74.218176,40.503228],[-74.218287,40.503182],[-74.219016,40.502995],[-74.219598,40.502786],[-74.21977,40.502743],[-74.220039,40.502717],[-74.220428,40.50275],[-74.220638,40.502749],[-74.220846,40.502721],[-74.221045,40.502669],[-74.221271,40.502651],[-74.22154,40.502561],[-74.221663,40.502537],[-74.221841,40.502538],[-74.221995,40.502589],[-74.222113,40.502602],[-74.222286,40.502574],[-74.222472,40.502502],[-74.222721,40.502527],[-74.223047,40.502478],[-74.22316,40.502439],[-74.2233,40.502338],[-74.223361,40.502313],[-74.223678,40.502299],[-74.22384,40.50227],[-74.223993,40.502221],[-74.224444,40.501963],[-74.224756,40.501858],[-74.224872,40.501802],[-74.225002,40.50177],[-74.225207,40.501774],[-74.225488,40.501844],[-74.225911,40.50197],[-74.22636,40.502142],[-74.226616,40.502219],[-74.227019,40.502286],[-74.227294,40.502297],[-74.227949,40.502244],[-74.228439,40.502257],[-74.229716,40.502086],[-74.23033,40.501863],[-74.230327,40.501812],[-74.230339,40.501804],[-74.23041,40.501911],[-74.230554,40.501947],[-74.230765,40.501925],[-74.231145,40.501851],[-74.231225,40.501816],[-74.231244,40.501827],[-74.232146,40.501501],[-74.233047,40.501102],[-74.233144,40.501079],[-74.23321,40.501096],[-74.233599,40.500913],[-74.234414,40.500774],[-74.235265,40.500606],[-74.235439,40.500545],[-74.235732,40.500402],[-74.235954,40.500344],[-74.236428,40.500077],[-74.236473,40.500113],[-74.23662,40.500072],[-74.236788,40.500001],[-74.237006,40.499855],[-74.237404,40.4995],[-74.237689,40.499173],[-74.237668,40.499123],[-74.237748,40.499101],[-74.237771,40.49918],[-74.237987,40.499166],[-74.238096,40.499126],[-74.238513,40.498896],[-74.239668,40.497703],[-74.239763,40.497626],[-74.239849,40.497583],[-74.239981,40.497569],[-74.24013,40.497619],[-74.240251,40.49764],[-74.240636,40.497609],[-74.240959,40.497643],[-74.241105,40.497618],[-74.241365,40.497627],[-74.241624,40.497608],[-74.241999,40.497528],[-74.242134,40.497523],[-74.242267,40.497539],[-74.242597,40.497623],[-74.242784,40.497637],[-74.243411,40.497577],[-74.243975,40.497582],[-74.244328,40.497547],[-74.244661,40.49745],[-74.245135,40.497235],[-74.245489,40.497045],[-74.245907,40.496785],[-74.246305,40.496438],[-74.246761,40.496134],[-74.247171,40.496143],[-74.247579,40.496179],[-74.247981,40.496242],[-74.248374,40.496331],[-74.248756,40.496445],[-74.249124,40.496585],[-74.249642,40.496838],[-74.249717,40.496886],[-74.249926,40.497083],[-74.250327,40.497539],[-74.250855,40.498006],[-74.250959,40.498223],[-74.250988,40.49836],[-74.251003,40.498618],[-74.251104,40.498934],[-74.25131,40.4991],[-74.251471,40.499191],[-74.2526,40.499643],[-74.252907,40.499866],[-74.253161,40.500125],[-74.253298,40.500315],[-74.253406,40.500514],[-74.253743,40.501415],[-74.253846,40.501636],[-74.254058,40.501948],[-74.254235,40.50214],[-74.254274,40.502161],[-74.25472,40.502965],[-74.255234,40.503935],[-74.255279,40.504056],[-74.255343,40.504302],[-74.255369,40.504553],[-74.255307,40.506536],[-74.255353,40.506863],[-74.255492,40.507357],[-74.255578,40.507578],[-74.255591,40.507713],[-74.255453,40.508033],[-74.255248,40.508243],[-74.255043,40.508397],[-74.254899,40.508434],[-74.254629,40.508675],[-74.254731,40.508724],[-74.254981,40.508771],[-74.254973,40.508806],[-74.254715,40.508736],[-74.254619,40.508684],[-74.254487,40.508804],[-74.254345,40.508792],[-74.25412,40.508991],[-74.254038,40.508949],[-74.253998,40.50897],[-74.253977,40.50902],[-74.254111,40.509167],[-74.254038,40.509253],[-74.254307,40.509376],[-74.254349,40.509329],[-74.254389,40.509344],[-74.254315,40.509414],[-74.254021,40.509273],[-74.253892,40.509424],[-74.253734,40.509377],[-74.253689,40.509426],[-74.253705,40.509434],[-74.253676,40.509467],[-74.253693,40.509477],[-74.254568,40.50988],[-74.254623,40.509815],[-74.254647,40.509826],[-74.254526,40.509973],[-74.2545,40.509963],[-74.254553,40.509896],[-74.253648,40.509471],[-74.253607,40.509481],[-74.253503,40.509602],[-74.253478,40.509673],[-74.253316,40.509862],[-74.253244,40.510052],[-74.25315,40.510388],[-74.253127,40.510713],[-74.253064,40.511055],[-74.25326,40.511079],[-74.253258,40.511089],[-74.253063,40.511068],[-74.253008,40.511194],[-74.25302,40.511285],[-74.253082,40.511393],[-74.253434,40.511637],[-74.253486,40.511595],[-74.253459,40.51163],[-74.253487,40.511649],[-74.253532,40.511623],[-74.253495,40.511656],[-74.253527,40.511678],[-74.253502,40.511701],[-74.253093,40.511411],[-74.253036,40.511433],[-74.252997,40.511859],[-74.253019,40.511938],[-74.2531,40.512037],[-74.25309,40.512122],[-74.252166,40.512783],[-74.251952,40.512997],[-74.251929,40.513209],[-74.251995,40.513347],[-74.25209,40.513461],[-74.252144,40.513553],[-74.252126,40.51371],[-74.251756,40.514037],[-74.25149,40.514213],[-74.251353,40.514393],[-74.25127,40.514402],[-74.251103,40.514455],[-74.25088,40.514571],[-74.250612,40.514681],[-74.250425,40.514801],[-74.250351,40.514886],[-74.250255,40.514947],[-74.250193,40.515013],[-74.250112,40.515045],[-74.250062,40.515139],[-74.250076,40.515219],[-74.250274,40.515446],[-74.250555,40.515716],[-74.250455,40.515772],[-74.250196,40.51551],[-74.250275,40.515463],[-74.250156,40.515361],[-74.249888,40.515522],[-74.250476,40.516117],[-74.250535,40.516086],[-74.25056,40.516107],[-74.250415,40.516188],[-74.250395,40.516164],[-74.250451,40.516129],[-74.249357,40.515006],[-74.249277,40.51505],[-74.249357,40.515129],[-74.249338,40.515141],[-74.249256,40.515061],[-74.249215,40.515085],[-74.249525,40.51541],[-74.249632,40.515545],[-74.249623,40.515575],[-74.2495,40.515646],[-74.249533,40.515682],[-74.249514,40.515694],[-74.249942,40.516137],[-74.249899,40.51616],[-74.249482,40.515717],[-74.249464,40.515725],[-74.249431,40.515688],[-74.249056,40.515904],[-74.249031,40.515881],[-74.248648,40.516113],[-74.248843,40.516306],[-74.24883,40.516313],[-74.248682,40.516182],[-74.248625,40.516216],[-74.24876,40.516356],[-74.248737,40.516365],[-74.248546,40.51617],[-74.24855,40.516196],[-74.248512,40.516226],[-74.248601,40.516313],[-74.248284,40.516487],[-74.248946,40.517195],[-74.249378,40.516951],[-74.249408,40.516981],[-74.248514,40.517476],[-74.248487,40.51745],[-74.248919,40.517208],[-74.247518,40.515736],[-74.24693,40.516066],[-74.246871,40.516037],[-74.246595,40.516072],[-74.24644,40.515965],[-74.246126,40.516117],[-74.246129,40.516137],[-74.246175,40.516159],[-74.246301,40.516141],[-74.24653,40.516378],[-74.246599,40.516358],[-74.24675,40.516496],[-74.246593,40.516587],[-74.24651,40.51667],[-74.246693,40.516882],[-74.246996,40.517182],[-74.246969,40.517198],[-74.246479,40.516687],[-74.246377,40.516739],[-74.246564,40.516946],[-74.246537,40.51696],[-74.24635,40.516753],[-74.245982,40.516943],[-74.245953,40.516932],[-74.245209,40.51729],[-74.24567,40.51779],[-74.245599,40.517857],[-74.245713,40.517984],[-74.245635,40.518076],[-74.245566,40.51809],[-74.245491,40.51806],[-74.245306,40.518029],[-74.245088,40.518067],[-74.244861,40.518155],[-74.244692,40.518259],[-74.244513,40.518417],[-74.244408,40.518477],[-74.244298,40.518515],[-74.244193,40.518508],[-74.244,40.518441],[-74.243821,40.518329],[-74.243652,40.518295],[-74.242823,40.518308],[-74.242637,40.518243],[-74.242325,40.518327],[-74.242091,40.518485],[-74.24187,40.518742],[-74.24126,40.51918],[-74.241091,40.519346],[-74.241031,40.519543],[-74.24087,40.519494],[-74.240759,40.51932],[-74.240596,40.51921],[-74.240491,40.519192],[-74.240396,40.519279],[-74.240244,40.519517],[-74.240097,40.519868],[-74.239916,40.52001],[-74.23985,40.520002],[-74.239823,40.520091],[-74.239918,40.520114],[-74.239919,40.520162],[-74.240031,40.520313],[-74.240334,40.520409],[-74.240556,40.520448],[-74.240733,40.520569],[-74.240847,40.520654],[-74.24094,40.520754],[-74.240922,40.520807],[-74.240974,40.520887],[-74.241173,40.52106],[-74.241219,40.521032],[-74.24124,40.520948],[-74.241332,40.520895],[-74.241572,40.520947],[-74.241891,40.520978],[-74.242932,40.521227],[-74.242899,40.521459],[-74.242811,40.521656],[-74.242595,40.522062],[-74.242584,40.522199],[-74.242643,40.522411],[-74.242708,40.522573],[-74.242715,40.522657],[-74.242732,40.522701],[-74.242762,40.522727],[-74.242748,40.5228],[-74.242655,40.522884],[-74.242623,40.522947],[-74.242614,40.523081],[-74.242617,40.523099],[-74.242694,40.523152],[-74.24274,40.523267],[-74.242754,40.523367],[-74.24274,40.523564],[-74.242766,40.523638],[-74.242759,40.5237],[-74.242817,40.523804],[-74.242802,40.524007],[-74.24299,40.524254],[-74.243113,40.524511],[-74.243301,40.524774],[-74.243358,40.524819],[-74.243489,40.524861],[-74.243608,40.524845],[-74.243965,40.524905],[-74.243968,40.524999],[-74.243339,40.525854],[-74.243074,40.526694],[-74.243051,40.526812],[-74.24306,40.526941],[-74.243035,40.527068],[-74.242976,40.527188],[-74.242887,40.527297],[-74.242876,40.527586],[-74.242946,40.527698],[-74.242948,40.527726],[-74.24294,40.5278],[-74.242857,40.527944],[-74.242842,40.528003],[-74.242887,40.528049],[-74.242887,40.5282],[-74.242613,40.528418],[-74.242551,40.528418],[-74.24251,40.528446],[-74.242533,40.528528],[-74.242499,40.528584],[-74.242484,40.528662],[-74.24242,40.528734],[-74.242413,40.528833],[-74.242455,40.528955],[-74.242375,40.529029],[-74.242284,40.529261],[-74.242188,40.529438],[-74.242168,40.529705],[-74.242245,40.529823],[-74.242025,40.530062],[-74.241906,40.530245],[-74.241818,40.530417],[-74.241712,40.530537],[-74.241549,40.530875],[-74.241507,40.531041],[-74.2415,40.531143],[-74.241531,40.53147],[-74.241719,40.53161],[-74.241668,40.531923],[-74.241811,40.532563],[-74.242178,40.532576],[-74.242282,40.533387],[-74.242205,40.533437],[-74.24207,40.533479],[-74.241988,40.533572],[-74.241965,40.533634],[-74.241965,40.533666],[-74.242015,40.533772],[-74.241989,40.533916],[-74.241987,40.534067],[-74.242046,40.534346],[-74.242125,40.534433],[-74.242212,40.534604],[-74.242349,40.534695],[-74.2424,40.534753],[-74.242557,40.534754],[-74.242633,40.534783],[-74.24263,40.534929],[-74.242866,40.535172],[-74.2429,40.535262],[-74.242956,40.535313],[-74.242946,40.535384],[-74.242956,40.535407],[-74.24308,40.535465],[-74.243092,40.535511],[-74.243218,40.535619],[-74.243325,40.53565],[-74.243337,40.535704],[-74.243409,40.53582],[-74.24351,40.535883],[-74.243652,40.536011],[-74.243697,40.53608],[-74.243885,40.536176],[-74.244091,40.53618],[-74.244125,40.536196],[-74.244127,40.536221],[-74.244054,40.536283],[-74.243997,40.536363],[-74.243977,40.53646],[-74.243985,40.536547],[-74.244148,40.536881],[-74.244201,40.536919],[-74.244257,40.536933],[-74.244482,40.536909],[-74.244588,40.536933],[-74.244729,40.536876],[-74.244801,40.536753],[-74.244906,40.536671],[-74.244937,40.536664],[-74.245214,40.536766],[-74.245337,40.536906],[-74.24536,40.537013],[-74.245341,40.537058],[-74.245259,40.537146],[-74.244962,40.537243],[-74.244801,40.537385],[-74.244591,40.537712],[-74.244486,40.537797],[-74.244439,40.537906],[-74.244427,40.538016],[-74.24447,40.538159],[-74.244681,40.53834],[-74.24466,40.538429],[-74.244684,40.538497],[-74.244904,40.538689],[-74.245114,40.538939],[-74.245213,40.539113],[-74.245323,40.539384],[-74.245297,40.539444],[-74.245394,40.539552],[-74.2454,40.539586],[-74.245363,40.539635],[-74.245417,40.539717],[-74.245433,40.5398],[-74.245413,40.540214],[-74.24543,40.540386],[-74.245476,40.540633],[-74.245602,40.54095],[-74.24562,40.54097],[-74.245824,40.541054],[-74.245993,40.541279],[-74.246047,40.541367],[-74.246148,40.541685],[-74.24626,40.541931],[-74.246486,40.542213],[-74.246575,40.54225],[-74.246762,40.542367],[-74.246778,40.542423],[-74.246863,40.54251],[-74.247678,40.543125],[-74.247922,40.543049],[-74.248035,40.543093],[-74.247706,40.543524],[-74.247619,40.543509],[-74.246137,40.545696],[-74.243638,40.547666],[-74.243602,40.547638],[-74.243366,40.547809],[-74.243402,40.547836],[-74.243363,40.547865],[-74.243299,40.547828],[-74.243584,40.547624],[-74.242936,40.547113],[-74.242665,40.547011],[-74.242203,40.546949],[-74.24205,40.546956],[-74.241799,40.547002],[-74.241693,40.547068],[-74.24128,40.547232],[-74.240392,40.547663],[-74.240125,40.54786],[-74.239791,40.548075],[-74.239593,40.54824],[-74.239392,40.54836],[-74.239314,40.548454],[-74.239289,40.548515],[-74.239186,40.548535],[-74.23915,40.548558],[-74.239023,40.54873],[-74.238769,40.548942],[-74.238525,40.549024],[-74.238372,40.549142],[-74.238149,40.549393],[-74.237903,40.549743],[-74.237765,40.549973],[-74.23762,40.550123],[-74.237517,40.55019],[-74.237465,40.550204],[-74.237319,40.55022],[-74.237226,40.550208],[-74.237133,40.550263],[-74.236883,40.550298],[-74.236693,40.550385],[-74.236501,40.55043],[-74.236415,40.550508],[-74.236378,40.550579],[-74.236288,40.550694],[-74.236285,40.550856],[-74.236178,40.551311],[-74.236165,40.551429],[-74.236212,40.551585],[-74.236293,40.551752],[-74.23634,40.551833],[-74.236463,40.551939],[-74.236508,40.552027],[-74.236519,40.552122],[-74.236495,40.552214],[-74.2364,40.552335],[-74.236354,40.552368],[-74.234899,40.553005],[-74.234787,40.552986],[-74.234668,40.552939],[-74.23452,40.552936],[-74.234351,40.552837],[-74.23415,40.552779],[-74.233984,40.552626],[-74.233778,40.552514],[-74.23351,40.552465],[-74.233405,40.552478],[-74.233324,40.552509],[-74.232915,40.552823],[-74.232804,40.552894],[-74.232696,40.552928],[-74.232291,40.553364],[-74.232203,40.553495],[-74.2321,40.553743],[-74.231966,40.553964],[-74.231933,40.55415],[-74.231887,40.554213],[-74.231356,40.554742],[-74.231218,40.554861],[-74.23099,40.555147],[-74.230875,40.555351],[-74.23084,40.555448],[-74.230755,40.555537],[-74.23071,40.555558],[-74.230609,40.555579],[-74.230555,40.555564],[-74.230425,40.555462],[-74.230345,40.555417],[-74.23025,40.555387],[-74.230175,40.55539],[-74.229926,40.555486],[-74.229789,40.555516],[-74.229605,40.555519],[-74.22938,40.555481],[-74.22932,40.555492],[-74.229249,40.555567],[-74.229248,40.55561],[-74.22927,40.55567],[-74.229331,40.555701],[-74.229353,40.555751],[-74.229313,40.555817],[-74.229248,40.555871],[-74.229195,40.555885],[-74.229141,40.555873],[-74.229073,40.555964],[-74.229083,40.556029],[-74.229052,40.556107],[-74.228724,40.556297],[-74.228465,40.556312],[-74.228332,40.55639],[-74.228213,40.556386],[-74.228108,40.556362],[-74.228014,40.556273],[-74.227702,40.556184],[-74.227559,40.556088],[-74.227437,40.556039],[-74.227241,40.556035],[-74.227083,40.556059],[-74.226902,40.556107],[-74.226769,40.556111],[-74.226737,40.556133],[-74.226579,40.556158],[-74.226573,40.556195],[-74.226537,40.556231],[-74.226477,40.556254],[-74.226405,40.556256],[-74.22637,40.55625],[-74.226332,40.556216],[-74.226187,40.556229],[-74.226114,40.556252],[-74.226069,40.556212],[-74.223903,40.555897],[-74.223864,40.556098],[-74.223443,40.556047],[-74.223472,40.555946],[-74.223757,40.555981],[-74.223774,40.555965],[-74.223786,40.55588],[-74.223161,40.555787],[-74.223113,40.555737],[-74.223097,40.555637],[-74.223002,40.555576],[-74.222971,40.555537],[-74.222972,40.555503],[-74.22274,40.555434],[-74.222575,40.555406],[-74.222422,40.555479],[-74.222371,40.555487],[-74.222217,40.555465],[-74.222122,40.555417],[-74.222011,40.555403],[-74.221902,40.555393],[-74.221799,40.555417],[-74.221749,40.555439],[-74.221654,40.555589],[-74.22157,40.555649],[-74.221499,40.555592],[-74.221494,40.555562],[-74.221453,40.555529],[-74.221462,40.555451],[-74.221432,40.555379],[-74.221347,40.555358],[-74.221299,40.555366],[-74.221214,40.555431],[-74.221183,40.555683],[-74.22116,40.5557],[-74.221053,40.555702],[-74.220979,40.555912],[-74.220943,40.555938],[-74.220867,40.55594],[-74.22077,40.55591],[-74.220553,40.555885],[-74.220423,40.555707],[-74.220406,40.555635],[-74.220297,40.555598],[-74.220267,40.555499],[-74.220219,40.555473],[-74.220185,40.555426],[-74.220179,40.555209],[-74.220135,40.555067],[-74.220145,40.555006],[-74.220106,40.554929],[-74.219993,40.554765],[-74.219921,40.554698],[-74.219865,40.554651],[-74.219744,40.554613],[-74.2196,40.554655],[-74.21953,40.554719],[-74.219409,40.554725],[-74.219323,40.554755],[-74.219256,40.554745],[-74.219176,40.554759],[-74.21911,40.554801],[-74.219081,40.554847],[-74.21909,40.554928],[-74.219173,40.555071],[-74.219235,40.555118],[-74.219258,40.555156],[-74.219196,40.555395],[-74.21921,40.555456],[-74.219295,40.555489],[-74.21931,40.555512],[-74.219337,40.555691],[-74.219286,40.555795],[-74.219217,40.555797],[-74.219182,40.555753],[-74.219178,40.555528],[-74.219169,40.555517],[-74.219092,40.555529],[-74.219075,40.555507],[-74.219068,40.555353],[-74.218958,40.554858],[-74.218914,40.554778],[-74.218781,40.554672],[-74.218593,40.554674],[-74.21854,40.554707],[-74.218533,40.554739],[-74.218565,40.55482],[-74.218536,40.554933],[-74.218819,40.555875],[-74.218754,40.555893],[-74.218802,40.555955],[-74.21875,40.556028],[-74.21867,40.55605],[-74.218415,40.555728],[-74.21827,40.555691],[-74.218174,40.555601],[-74.218122,40.55551],[-74.218129,40.555465],[-74.218071,40.555293],[-74.217915,40.555095],[-74.217753,40.555005],[-74.217191,40.555159],[-74.216547,40.555394],[-74.216042,40.555544],[-74.215568,40.555813],[-74.214741,40.556242],[-74.214912,40.556524],[-74.215018,40.556756],[-74.214993,40.556795],[-74.214623,40.556913],[-74.214584,40.556899],[-74.214475,40.556689],[-74.214344,40.556727],[-74.214227,40.556557],[-74.214123,40.55662],[-74.21401,40.556631],[-74.213955,40.556657],[-74.213869,40.556587],[-74.213864,40.556574],[-74.213901,40.556542],[-74.213888,40.556514],[-74.213847,40.556488],[-74.21379,40.556401],[-74.213765,40.556397],[-74.213629,40.556512],[-74.213396,40.55656],[-74.213275,40.556625],[-74.21324,40.556673],[-74.213244,40.556764],[-74.213171,40.556929],[-74.213141,40.557044],[-74.213051,40.557134],[-74.21294,40.557207],[-74.212877,40.557233],[-74.212779,40.557231],[-74.212643,40.55729],[-74.212631,40.557337],[-74.212672,40.557413],[-74.212681,40.557473],[-74.212673,40.557648],[-74.212523,40.557804],[-74.212261,40.557982],[-74.212216,40.558079],[-74.212109,40.5582],[-74.211968,40.558442],[-74.21188,40.558765],[-74.211756,40.559125],[-74.211784,40.559188],[-74.211926,40.559238],[-74.21197,40.559298],[-74.211968,40.559344],[-74.21188,40.559597],[-74.211762,40.559766],[-74.211593,40.559923],[-74.211416,40.560181],[-74.211226,40.560361],[-74.211169,40.560486],[-74.211173,40.56073],[-74.211196,40.560768],[-74.211268,40.560812],[-74.211297,40.560861],[-74.211321,40.560962],[-74.21134,40.56123],[-74.211309,40.561355],[-74.211193,40.561542],[-74.211185,40.561618],[-74.211103,40.561906],[-74.211096,40.562131],[-74.211109,40.562248],[-74.211344,40.562923],[-74.211351,40.5632],[-74.21138,40.563492],[-74.211098,40.564006],[-74.210963,40.56429],[-74.210847,40.564709],[-74.210743,40.565228],[-74.210623,40.56552],[-74.210476,40.565765],[-74.210334,40.566097],[-74.210115,40.566415],[-74.209976,40.5667],[-74.209628,40.567318],[-74.209541,40.567515],[-74.209524,40.567606],[-74.209572,40.567791],[-74.209535,40.567928],[-74.209514,40.567949],[-74.209385,40.567962],[-74.209322,40.568025],[-74.209303,40.568159],[-74.209269,40.56825],[-74.20927,40.568324],[-74.209242,40.56841],[-74.209219,40.568445],[-74.209058,40.568575],[-74.208993,40.568726],[-74.208867,40.56891],[-74.208846,40.568988],[-74.208843,40.56909],[-74.208892,40.569229],[-74.2089,40.569398],[-74.20888,40.569476],[-74.208926,40.569624],[-74.208827,40.56975],[-74.208758,40.569808],[-74.208682,40.569818],[-74.208619,40.569863],[-74.20844,40.570182],[-74.208256,40.570292],[-74.208076,40.570437],[-74.208017,40.570518],[-74.208005,40.570564],[-74.208014,40.570623],[-74.208147,40.570693],[-74.208169,40.570719],[-74.207836,40.57261],[-74.207263,40.574113],[-74.207078,40.574266],[-74.207081,40.574372],[-74.207118,40.574414],[-74.207205,40.574452],[-74.207227,40.574487],[-74.207119,40.574564],[-74.207091,40.574604],[-74.20707,40.574743],[-74.207154,40.574954],[-74.207228,40.575104],[-74.207272,40.575151],[-74.207284,40.575255],[-74.207106,40.575356],[-74.206974,40.575525],[-74.206874,40.575683],[-74.206812,40.575922],[-74.20685,40.576155],[-74.206887,40.576217],[-74.206928,40.576246],[-74.207095,40.576278],[-74.207089,40.576306],[-74.20704,40.576409],[-74.206981,40.576459],[-74.20694,40.576472],[-74.206927,40.576544],[-74.206884,40.576554],[-74.206825,40.576519],[-74.206703,40.576543],[-74.20658,40.576653],[-74.206536,40.576776],[-74.206531,40.576902],[-74.206548,40.576927],[-74.206693,40.576989],[-74.206693,40.577017],[-74.206747,40.577087],[-74.206816,40.577121],[-74.206808,40.57718],[-74.206716,40.577231],[-74.206635,40.577396],[-74.206597,40.577412],[-74.206505,40.577412],[-74.206395,40.577517],[-74.206323,40.577539],[-74.20623,40.577739],[-74.206181,40.577904],[-74.206151,40.578069],[-74.206174,40.578163],[-74.206109,40.578232],[-74.205977,40.578447],[-74.205917,40.578617],[-74.206066,40.579603],[-74.205962,40.580047],[-74.205986,40.580077],[-74.206013,40.580253],[-74.205986,40.580339],[-74.205993,40.58041],[-74.205922,40.580469],[-74.205918,40.580512],[-74.205891,40.580555],[-74.205765,40.580656],[-74.205753,40.580746],[-74.205774,40.580809],[-74.205743,40.580868],[-74.205724,40.580966],[-74.205417,40.581069],[-74.205393,40.581138],[-74.205357,40.581146],[-74.205288,40.581203],[-74.205272,40.581229],[-74.205267,40.581374],[-74.205213,40.581443],[-74.205138,40.581505],[-74.205112,40.581572],[-74.205081,40.581599],[-74.205068,40.58166],[-74.205122,40.581723],[-74.205124,40.581781],[-74.20507,40.581915],[-74.205125,40.58202],[-74.205132,40.582067],[-74.205097,40.582129],[-74.205089,40.582208],[-74.205056,40.582257],[-74.205035,40.582366],[-74.205002,40.582415],[-74.204966,40.582564],[-74.204864,40.58267],[-74.20477,40.582691],[-74.204756,40.582764],[-74.204709,40.582798],[-74.204703,40.582841],[-74.204751,40.582953],[-74.204703,40.583014],[-74.204711,40.583046],[-74.204754,40.583093],[-74.204739,40.583176],[-74.204664,40.583182],[-74.204624,40.583207],[-74.204619,40.583262],[-74.204543,40.583382],[-74.2045,40.58357],[-74.204427,40.583654],[-74.204401,40.583713],[-74.204402,40.583851],[-74.204468,40.584043],[-74.204615,40.584252],[-74.204634,40.584323],[-74.204603,40.584378],[-74.204421,40.584519],[-74.204364,40.584634],[-74.204367,40.584723],[-74.204425,40.58485],[-74.204419,40.58499],[-74.204442,40.58505],[-74.204412,40.585127],[-74.204422,40.585196],[-74.2044,40.585457],[-74.204415,40.585524],[-74.204404,40.585549],[-74.204341,40.58557],[-74.204319,40.585601],[-74.204351,40.585679],[-74.204336,40.585751],[-74.204308,40.585781],[-74.204245,40.585809],[-74.20414,40.585836],[-74.20412,40.585859],[-74.204119,40.585896],[-74.204275,40.58611],[-74.204254,40.586306],[-74.20422,40.586335],[-74.204202,40.586414],[-74.204246,40.58683],[-74.204265,40.587321],[-74.204354,40.58748],[-74.204378,40.587561],[-74.204386,40.587928],[-74.204398,40.587953],[-74.204542,40.587993],[-74.204565,40.588027],[-74.204581,40.588218],[-74.204551,40.588287],[-74.204498,40.588343],[-74.204434,40.588373],[-74.204405,40.58842],[-74.204328,40.588438],[-74.204273,40.588483],[-74.204253,40.588542],[-74.204261,40.588627],[-74.204181,40.588666],[-74.20413,40.588773],[-74.204122,40.588881],[-74.204147,40.588988],[-74.204204,40.589087],[-74.204323,40.589137],[-74.204574,40.588719],[-74.204705,40.588772],[-74.204435,40.589218],[-74.204646,40.589286],[-74.204409,40.589707],[-74.204203,40.589643],[-74.203859,40.59025],[-74.2037,40.5902],[-74.203942,40.589807],[-74.203886,40.589786],[-74.202659,40.590722],[-74.202605,40.590677],[-74.202535,40.590648],[-74.202378,40.590645],[-74.202275,40.590691],[-74.202154,40.5908],[-74.202014,40.590896],[-74.202468,40.590839],[-74.202586,40.590877],[-74.203053,40.591141],[-74.202963,40.591231],[-74.202455,40.590951],[-74.202027,40.590999],[-74.202067,40.591145],[-74.202124,40.591253],[-74.202071,40.59132],[-74.201899,40.591393],[-74.201851,40.591471],[-74.201828,40.591544],[-74.201841,40.591636],[-74.201882,40.591691],[-74.202003,40.591781],[-74.202303,40.591469],[-74.202317,40.591477],[-74.202287,40.591509],[-74.202316,40.591524],[-74.202281,40.591516],[-74.20202,40.591787],[-74.20206,40.591809],[-74.202009,40.59186],[-74.201944,40.591824],[-74.201755,40.592017],[-74.201824,40.592053],[-74.201782,40.592095],[-74.201722,40.592053],[-74.201303,40.592531],[-74.201289,40.592524],[-74.200925,40.592866],[-74.200749,40.59275],[-74.200575,40.592769],[-74.200471,40.592812],[-74.200427,40.592841],[-74.200411,40.592975],[-74.200331,40.593095],[-74.200044,40.593286],[-74.199741,40.593565],[-74.199493,40.593874],[-74.199362,40.594094],[-74.199423,40.594179],[-74.199494,40.594241],[-74.199483,40.594321],[-74.1994,40.594414],[-74.199291,40.594469],[-74.199025,40.594676],[-74.198949,40.59478],[-74.198874,40.594945],[-74.198797,40.59495],[-74.198732,40.595012],[-74.198697,40.595064],[-74.198632,40.595226],[-74.198628,40.595386],[-74.198561,40.595553],[-74.198403,40.595793],[-74.198253,40.59591],[-74.198009,40.596262],[-74.19795,40.59647],[-74.1978,40.596641],[-74.197637,40.596777],[-74.197549,40.596803],[-74.197514,40.596799],[-74.197522,40.597365],[-74.197477,40.597396],[-74.197458,40.597442],[-74.197452,40.597558],[-74.197455,40.597615],[-74.197497,40.597724],[-74.197384,40.597806],[-74.197344,40.597947],[-74.197299,40.59802],[-74.197306,40.59806],[-74.197418,40.598204],[-74.197439,40.598461],[-74.198382,40.600862],[-74.19876,40.601712],[-74.199183,40.602359],[-74.200149,40.603683],[-74.201385,40.604637],[-74.202218,40.60597],[-74.202816,40.608271],[-74.202739,40.608832],[-74.202673,40.609828],[-74.202302,40.611876],[-74.202444,40.613285],[-74.200453,40.616328],[-74.20059,40.617029],[-74.200763,40.617053],[-74.200828,40.617094],[-74.200847,40.617203],[-74.200847,40.61737],[-74.200876,40.617485],[-74.200877,40.617595],[-74.200914,40.617799],[-74.20091,40.617838],[-74.200873,40.617883],[-74.2009,40.618002],[-74.200875,40.6181],[-74.200815,40.618119],[-74.200783,40.618112],[-74.200695,40.617979],[-74.200584,40.617979],[-74.200542,40.617998],[-74.200439,40.618076],[-74.200363,40.618235],[-74.200352,40.618342],[-74.200366,40.618399],[-74.200442,40.618542],[-74.200517,40.618634],[-74.200567,40.618672],[-74.200772,40.618745],[-74.20084,40.618804],[-74.200815,40.618861],[-74.200711,40.618925],[-74.200698,40.61895],[-74.200681,40.619168],[-74.200821,40.619569],[-74.200965,40.619768],[-74.200976,40.619914],[-74.201035,40.620095],[-74.200983,40.620173],[-74.200987,40.620322],[-74.201004,40.620353],[-74.20107,40.620382],[-74.200923,40.620401],[-74.200774,40.620395],[-74.20058,40.620308],[-74.200506,40.6203],[-74.200458,40.62035],[-74.200462,40.620378],[-74.200505,40.62043],[-74.200495,40.620458],[-74.200428,40.620495],[-74.200437,40.620536],[-74.200527,40.620573],[-74.200773,40.620567],[-74.200873,40.620591],[-74.200877,40.620665],[-74.20093,40.620692],[-74.200931,40.620744],[-74.20099,40.620784],[-74.201001,40.620894],[-74.201021,40.620934],[-74.201068,40.620965],[-74.201121,40.621073],[-74.201127,40.621138],[-74.201179,40.621242],[-74.201231,40.621412],[-74.201234,40.621506],[-74.201258,40.621555],[-74.201289,40.621586],[-74.201432,40.621613],[-74.201422,40.621645],[-74.201402,40.621653],[-74.201308,40.621658],[-74.20129,40.621861],[-74.201231,40.622074],[-74.201231,40.622185],[-74.201324,40.622516],[-74.201311,40.622624],[-74.201275,40.622688],[-74.201302,40.622705],[-74.20145,40.622685],[-74.201546,40.622698],[-74.201619,40.623009],[-74.201632,40.623122],[-74.201625,40.623347],[-74.201585,40.623498],[-74.201517,40.623537],[-74.201344,40.623553],[-74.201337,40.623594],[-74.201408,40.623662],[-74.201397,40.623736],[-74.201329,40.623834],[-74.201136,40.623987],[-74.201077,40.624078],[-74.201088,40.624252],[-74.201139,40.624356],[-74.201144,40.624468],[-74.201134,40.62458],[-74.201044,40.624914],[-74.200978,40.625362],[-74.200982,40.625401],[-74.201037,40.62546],[-74.201061,40.625558],[-74.201061,40.625895],[-74.201096,40.626001],[-74.201183,40.62611],[-74.201208,40.626112],[-74.201216,40.626054],[-74.201417,40.626071],[-74.200986,40.629344],[-74.200805,40.629333],[-74.200755,40.629595],[-74.200621,40.629588],[-74.20058,40.62963],[-74.200477,40.629657],[-74.200426,40.629821],[-74.200408,40.63025],[-74.200726,40.630278],[-74.200737,40.630256],[-74.200773,40.630249],[-74.2008,40.630274],[-74.200792,40.63035],[-74.200751,40.630372],[-74.200724,40.630355],[-74.200717,40.630321],[-74.200403,40.630292],[-74.200344,40.630597],[-74.200322,40.630824],[-74.200185,40.631329],[-74.200361,40.631382],[-74.200388,40.631354],[-74.20043,40.631359],[-74.200443,40.631381],[-74.200401,40.631459],[-74.200355,40.631466],[-74.200335,40.631443],[-74.200346,40.631413],[-74.200173,40.631361],[-74.200138,40.631482],[-74.200021,40.631621],[-74.199581,40.631944],[-74.198889,40.632514],[-74.198735,40.632667],[-74.198622,40.632738],[-74.19851,40.632782],[-74.198437,40.632784],[-74.198327,40.632746],[-74.19827,40.632751],[-74.198167,40.632708],[-74.19803,40.632771],[-74.197975,40.632813],[-74.198053,40.633018],[-74.198025,40.633029],[-74.197898,40.632943],[-74.197783,40.63297],[-74.197758,40.63305],[-74.197729,40.633058],[-74.197664,40.633053],[-74.197599,40.632995],[-74.197486,40.633007],[-74.197344,40.632998],[-74.197308,40.633048],[-74.197124,40.6331],[-74.197079,40.633127],[-74.197068,40.633173],[-74.197079,40.633201],[-74.197058,40.633233],[-74.196887,40.633298],[-74.196785,40.633392],[-74.196737,40.633452],[-74.196736,40.633513],[-74.196839,40.633634],[-74.196828,40.633703],[-74.196874,40.633732],[-74.196879,40.633761],[-74.196807,40.633794],[-74.19671,40.63387],[-74.196559,40.633924],[-74.196504,40.633897],[-74.196432,40.633942],[-74.19631,40.634054],[-74.196209,40.634237],[-74.196177,40.634381],[-74.196199,40.63473],[-74.196161,40.634778],[-74.196033,40.634877],[-74.196029,40.634996],[-74.195884,40.635067],[-74.195577,40.635004],[-74.195429,40.635176],[-74.195329,40.635212],[-74.195307,40.635234],[-74.195307,40.635287],[-74.195213,40.635377],[-74.195178,40.635443],[-74.195218,40.635511],[-74.195179,40.635553],[-74.195224,40.635627],[-74.195201,40.635708],[-74.194495,40.63645],[-74.194538,40.636475],[-74.194545,40.636516],[-74.194423,40.636582],[-74.194414,40.636634],[-74.19445,40.636804],[-74.194496,40.636919],[-74.194519,40.637034],[-74.194542,40.63707],[-74.194621,40.63709],[-74.19468,40.637035],[-74.194734,40.637041],[-74.194771,40.63708],[-74.194787,40.637132],[-74.194737,40.637267],[-74.194623,40.637391],[-74.1945,40.637422],[-74.194424,40.637419],[-74.194367,40.63739],[-74.194357,40.63733],[-74.194337,40.637316],[-74.194235,40.637337],[-74.194174,40.637311],[-74.193973,40.637309],[-74.193774,40.637367],[-74.193583,40.637469],[-74.19372,40.637567],[-74.186525,40.643389],[-74.186232,40.643187],[-74.186101,40.643271],[-74.186063,40.643448],[-74.185982,40.643513],[-74.185909,40.643631],[-74.185574,40.643802],[-74.185501,40.643815],[-74.185359,40.643793],[-74.185303,40.643767],[-74.185114,40.643806],[-74.185089,40.643836],[-74.185106,40.643865],[-74.185248,40.643944],[-74.185136,40.643973],[-74.184982,40.644072],[-74.184892,40.644072],[-74.184836,40.644128],[-74.184773,40.644045],[-74.184749,40.643939],[-74.18466,40.643912],[-74.184618,40.643817],[-74.184586,40.643791],[-74.184472,40.643772],[-74.184424,40.643651],[-74.184178,40.643584],[-74.184113,40.64353],[-74.18406,40.643384],[-74.184065,40.643324],[-74.184192,40.643172],[-74.184217,40.643182],[-74.18424,40.643234],[-74.184329,40.643227],[-74.184305,40.643195],[-74.184362,40.643172],[-74.184333,40.643124],[-74.18437,40.6431],[-74.184339,40.643092],[-74.184214,40.643117],[-74.184191,40.643074],[-74.184196,40.64301],[-74.184145,40.64295],[-74.18406,40.642701],[-74.183955,40.642494],[-74.183904,40.642432],[-74.183728,40.642307],[-74.183727,40.642273],[-74.183651,40.64224],[-74.183613,40.642323],[-74.183636,40.642396],[-74.183686,40.642487],[-74.183807,40.642614],[-74.183791,40.642718],[-74.183945,40.642882],[-74.183953,40.642947],[-74.184026,40.6431],[-74.18396,40.643157],[-74.183903,40.64326],[-74.183846,40.643266],[-74.18376,40.643217],[-74.183637,40.643087],[-74.183474,40.642949],[-74.183328,40.64291],[-74.183266,40.64293],[-74.183242,40.642964],[-74.183344,40.643134],[-74.183417,40.643223],[-74.183463,40.643337],[-74.183475,40.643411],[-74.183463,40.643473],[-74.183383,40.643522],[-74.183385,40.643588],[-74.183484,40.643705],[-74.183542,40.643852],[-74.183529,40.643885],[-74.183617,40.644028],[-74.1837,40.644209],[-74.183715,40.644296],[-74.183734,40.644304],[-74.1838,40.644432],[-74.183762,40.644515],[-74.18367,40.644584],[-74.183667,40.64461],[-74.183288,40.644679],[-74.183183,40.644734],[-74.18298,40.644794],[-74.182889,40.6448],[-74.182221,40.644747],[-74.1819,40.644682],[-74.181749,40.644711],[-74.181668,40.644709],[-74.181295,40.64459],[-74.181184,40.644586],[-74.181087,40.644627],[-74.180963,40.644814],[-74.180916,40.644845],[-74.180872,40.644851],[-74.180807,40.644819],[-74.180805,40.644643],[-74.180788,40.644578],[-74.180713,40.644538],[-74.180527,40.644485],[-74.180503,40.644457],[-74.180482,40.644279],[-74.180041,40.644288],[-74.180048,40.644372],[-74.179907,40.644379],[-74.179924,40.644655],[-74.179937,40.644655],[-74.179965,40.645267],[-74.179896,40.645269],[-74.179884,40.64511],[-74.179844,40.64511],[-74.179848,40.645165],[-74.179775,40.645167],[-74.17973,40.644381],[-74.179331,40.644401],[-74.179332,40.644487],[-74.179298,40.644583],[-74.179335,40.644722],[-74.179292,40.644787],[-74.179281,40.644859],[-74.179293,40.644909],[-74.17934,40.644976],[-74.179251,40.645042],[-74.179212,40.64505],[-74.179154,40.645015],[-74.179106,40.644877],[-74.179075,40.644647],[-74.179081,40.644506],[-74.179046,40.644262],[-74.17906,40.64407],[-74.179002,40.643718],[-74.179036,40.643395],[-74.179114,40.643301],[-74.179179,40.643294],[-74.17927,40.643242],[-74.179339,40.643229],[-74.179405,40.643129],[-74.179406,40.643094],[-74.179371,40.643063],[-74.179373,40.643048],[-74.179435,40.643011],[-74.179408,40.642957],[-74.179417,40.642903],[-74.179405,40.642829],[-74.179385,40.642799],[-74.179428,40.642611],[-74.179484,40.642523],[-74.179543,40.642356],[-74.179556,40.642243],[-74.179601,40.64215],[-74.179612,40.642044],[-74.179602,40.641931],[-74.179587,40.641918],[-74.179558,40.641924],[-74.179534,40.642148],[-74.179486,40.642264],[-74.179462,40.642373],[-74.179322,40.642727],[-74.179304,40.642885],[-74.179244,40.642968],[-74.179187,40.642988],[-74.17914,40.64299],[-74.179039,40.642949],[-74.178984,40.64286],[-74.178932,40.642727],[-74.178889,40.642687],[-74.178791,40.642499],[-74.178641,40.642572],[-74.178514,40.642548],[-74.178483,40.642521],[-74.17837,40.64228],[-74.178257,40.642129],[-74.178236,40.642147],[-74.178239,40.642181],[-74.178368,40.642545],[-74.178341,40.642589],[-74.178289,40.642604],[-74.178202,40.642581],[-74.17811,40.642529],[-74.178008,40.642543],[-74.17796,40.642578],[-74.177931,40.642625],[-74.177891,40.64263],[-74.177812,40.6426],[-74.177785,40.642651],[-74.17776,40.642849],[-74.177743,40.64289],[-74.177686,40.642949],[-74.177459,40.643035],[-74.177386,40.643012],[-74.177328,40.643064],[-74.177211,40.643123],[-74.177135,40.64309],[-74.177155,40.64305],[-74.177145,40.64301],[-74.177099,40.643022],[-74.177087,40.643051],[-74.177058,40.643059],[-74.176824,40.642859],[-74.176736,40.642464],[-74.176705,40.642417],[-74.176683,40.642473],[-74.176358,40.642327],[-74.176359,40.642349],[-74.176652,40.642512],[-74.176687,40.642552],[-74.176724,40.642971],[-74.176708,40.643281],[-74.176668,40.643387],[-74.176585,40.643427],[-74.176497,40.643405],[-74.176337,40.64346],[-74.175982,40.643464],[-74.17578,40.643416],[-74.175707,40.643378],[-74.175665,40.64331],[-74.175603,40.643311],[-74.175532,40.643375],[-74.175484,40.643462],[-74.175506,40.643689],[-74.175572,40.643734],[-74.175586,40.643779],[-74.175532,40.643819],[-74.175484,40.643911],[-74.175477,40.644008],[-74.175493,40.644092],[-74.175472,40.644123],[-74.175494,40.64417],[-74.175547,40.644177],[-74.175708,40.644572],[-74.175709,40.644646],[-74.175685,40.64471],[-74.175669,40.644718],[-74.175559,40.644616],[-74.175499,40.644623],[-74.175467,40.644647],[-74.175375,40.644787],[-74.175351,40.644856],[-74.175327,40.64503],[-74.175297,40.645075],[-74.174953,40.64515],[-74.174896,40.645146],[-74.174788,40.645115],[-74.17472,40.645063],[-74.174586,40.645017],[-74.174523,40.645037],[-74.174448,40.645123],[-74.174366,40.645136],[-74.174154,40.64508],[-74.174059,40.645025],[-74.173787,40.644815],[-74.173641,40.644733],[-74.173431,40.644584],[-74.173155,40.644345],[-74.173,40.64426],[-74.172941,40.644205],[-74.172923,40.644171],[-74.17291,40.644064],[-74.172877,40.644009],[-74.172889,40.643975],[-74.172954,40.643926],[-74.173002,40.643828],[-74.173028,40.643707],[-74.173002,40.643585],[-74.172948,40.643515],[-74.172847,40.643453],[-74.172784,40.643486],[-74.172715,40.643498],[-74.172448,40.643422],[-74.172362,40.643256],[-74.17237,40.643234],[-74.172423,40.6432],[-74.172545,40.643192],[-74.17249,40.643154],[-74.172549,40.643135],[-74.172571,40.643066],[-74.17272,40.643001],[-74.172734,40.642986],[-74.172721,40.642948],[-74.172572,40.642987],[-74.172539,40.642891],[-74.17244,40.642812],[-74.172394,40.642818],[-74.172327,40.642862],[-74.172281,40.64285],[-74.172227,40.642861],[-74.172148,40.642842],[-74.172007,40.642877],[-74.171963,40.642858],[-74.17184,40.643012],[-74.17175,40.643092],[-74.171572,40.643138],[-74.171508,40.643134],[-74.171446,40.643093],[-74.171424,40.643041],[-74.171433,40.643019],[-74.171491,40.642984],[-74.171432,40.642974],[-74.171336,40.642856],[-74.171646,40.642651],[-74.17182,40.642563],[-74.17186,40.642523],[-74.17175,40.642517],[-74.171823,40.642439],[-74.171849,40.64238],[-74.171803,40.642312],[-74.171723,40.642283],[-74.17177,40.642197],[-74.171746,40.642167],[-74.171696,40.642144],[-74.171671,40.642044],[-74.171722,40.64194],[-74.171698,40.641908],[-74.171604,40.641865],[-74.171562,40.641877],[-74.171495,40.64177],[-74.171479,40.641703],[-74.171488,40.641667],[-74.171452,40.641455],[-74.171491,40.641414],[-74.171493,40.641249],[-74.171516,40.641212],[-74.171577,40.641191],[-74.171602,40.641146],[-74.1716,40.641108],[-74.171573,40.641077],[-74.171587,40.64103],[-74.171601,40.641015],[-74.171913,40.641006],[-74.172023,40.640989],[-74.172392,40.640788],[-74.172461,40.640707],[-74.17251,40.640677],[-74.172796,40.64063],[-74.172939,40.64058],[-74.172999,40.640523],[-74.172999,40.640498],[-74.17298,40.640486],[-74.172799,40.640606],[-74.172557,40.640644],[-74.172461,40.640674],[-74.172308,40.640801],[-74.172062,40.640942],[-74.171966,40.640969],[-74.171601,40.640996],[-74.17157,40.641012],[-74.171547,40.64107],[-74.171565,40.641148],[-74.171456,40.641213],[-74.17144,40.641359],[-74.171387,40.641423],[-74.171386,40.64148],[-74.171402,40.641499],[-74.171374,40.642085],[-74.171327,40.642085],[-74.171154,40.642399],[-74.171177,40.642404],[-74.17105,40.642594],[-74.170992,40.642572],[-74.171275,40.642112],[-74.171211,40.642068],[-74.171193,40.64174],[-74.170286,40.641775],[-74.170079,40.642086],[-74.169153,40.641873],[-74.169064,40.64213],[-74.168402,40.641991],[-74.168243,40.641941],[-74.168204,40.641868],[-74.168125,40.641825],[-74.168017,40.641838],[-74.167741,40.641728],[-74.167576,40.641845],[-74.166774,40.641582],[-74.166717,40.641479],[-74.166534,40.641423],[-74.16648,40.641435],[-74.166216,40.642424],[-74.1661,40.642407],[-74.166319,40.641437],[-74.166116,40.641371],[-74.166045,40.641301],[-74.165801,40.641225],[-74.165634,40.641214],[-74.165443,40.642281],[-74.164941,40.642209],[-74.16519,40.640642],[-74.164734,40.640391],[-74.164571,40.641419],[-74.164415,40.641397],[-74.164597,40.640316],[-74.164236,40.640106],[-74.164169,40.639994],[-74.164002,40.641066],[-74.163862,40.641053],[-74.164047,40.639947],[-74.16385,40.639892],[-74.163654,40.639862],[-74.163454,40.639857],[-74.163246,40.640957],[-74.162871,40.640937],[-74.162858,40.641028],[-74.162805,40.641038],[-74.162646,40.640967],[-74.16251,40.64093],[-74.162435,40.64093],[-74.162069,40.640788],[-74.162069,40.640728],[-74.161675,40.640611],[-74.162285,40.638766],[-74.161819,40.638646],[-74.161449,40.639428],[-74.161302,40.639394],[-74.16166,40.638665],[-74.16124,40.638595],[-74.161158,40.638694],[-74.160905,40.639386],[-74.160737,40.639351],[-74.161064,40.638681],[-74.161082,40.638568],[-74.160892,40.638541],[-74.160811,40.638633],[-74.160762,40.638624],[-74.160751,40.638518],[-74.160348,40.638444],[-74.159949,40.63994],[-74.159864,40.639928],[-74.160207,40.63861],[-74.160235,40.63841],[-74.160225,40.638339],[-74.160165,40.638565],[-74.160058,40.638722],[-74.159958,40.638744],[-74.159857,40.638729],[-74.15973,40.638578],[-74.159737,40.638524],[-74.15972,40.638453],[-74.159671,40.63844],[-74.159641,40.638414],[-74.159631,40.638214],[-74.159577,40.637993],[-74.159448,40.637928],[-74.15932,40.63781],[-74.159227,40.637796],[-74.159164,40.637848],[-74.159056,40.638039],[-74.159015,40.638269],[-74.158989,40.638579],[-74.159025,40.638584],[-74.15901,40.638823],[-74.158895,40.638815],[-74.158933,40.638264],[-74.158646,40.638249],[-74.158635,40.638128],[-74.158153,40.63811],[-74.158149,40.637968],[-74.157893,40.637965],[-74.157841,40.638874],[-74.157734,40.638879],[-74.157774,40.637957],[-74.157071,40.637947],[-74.156368,40.637906],[-74.156366,40.637951],[-74.156103,40.63794],[-74.156115,40.637531],[-74.155699,40.637518],[-74.155685,40.637787],[-74.155589,40.637786],[-74.155586,40.637731],[-74.154829,40.637724],[-74.154759,40.639196],[-74.154693,40.639194],[-74.154778,40.637722],[-74.154597,40.637343],[-74.154454,40.63723],[-74.154383,40.637194],[-74.154253,40.637172],[-74.153881,40.637198],[-74.153511,40.637273],[-74.153414,40.637273],[-74.153276,40.637267],[-74.153137,40.637206],[-74.152921,40.63714],[-74.152797,40.637133],[-74.152701,40.637192],[-74.152696,40.637266],[-74.152725,40.637382],[-74.152725,40.63757],[-74.152697,40.637642],[-74.152218,40.637693],[-74.152298,40.638274],[-74.152137,40.638291],[-74.152046,40.637667],[-74.151195,40.637731],[-74.151263,40.638487],[-74.151395,40.639397],[-74.151248,40.639409],[-74.15113,40.638501],[-74.150556,40.638559],[-74.15044,40.63843],[-74.150393,40.638338],[-74.150309,40.638281],[-74.150114,40.638267],[-74.149968,40.63815],[-74.149794,40.637893],[-74.149679,40.637518],[-74.149447,40.637405],[-74.149399,40.637401],[-74.14936,40.637419],[-74.149312,40.637526],[-74.149452,40.637885],[-74.149419,40.638292],[-74.149317,40.63839],[-74.149282,40.638571],[-74.149194,40.638668],[-74.148882,40.638705],[-74.148558,40.637438],[-74.148528,40.637445],[-74.148516,40.637547],[-74.148778,40.638876],[-74.147612,40.639037],[-74.147499,40.63891],[-74.146022,40.639095],[-74.146057,40.639229],[-74.145193,40.639378],[-74.144842,40.639354],[-74.144671,40.639304],[-74.144591,40.639201],[-74.144339,40.639096],[-74.144261,40.639039],[-74.144093,40.638965],[-74.144024,40.638901],[-74.143953,40.638881],[-74.143862,40.638888],[-74.143794,40.638915],[-74.14375,40.638962],[-74.143842,40.639088],[-74.143817,40.639207],[-74.143743,40.639229],[-74.143573,40.639227],[-74.143488,40.639326],[-74.143425,40.639466],[-74.143455,40.639477],[-74.143361,40.63971],[-74.143263,40.639714],[-74.142937,40.639632],[-74.142922,40.639597],[-74.14286,40.639569],[-74.142578,40.639534],[-74.142475,40.63957],[-74.142388,40.639641],[-74.142322,40.639748],[-74.14232,40.639792],[-74.142386,40.640055],[-74.142405,40.640198],[-74.142381,40.640252],[-74.142298,40.640306],[-74.142154,40.640343],[-74.142054,40.640297],[-74.141556,40.640367],[-74.14148,40.640092],[-74.141286,40.640145],[-74.141192,40.640389],[-74.141024,40.640507],[-74.140763,40.640589],[-74.139938,40.640734],[-74.139297,40.640806],[-74.139257,40.640736],[-74.139204,40.640746],[-74.139183,40.640855],[-74.137576,40.641001],[-74.137439,40.641054],[-74.137345,40.641147],[-74.13737,40.641295],[-74.135707,40.641621],[-74.13571,40.641646],[-74.134999,40.641785],[-74.134997,40.641761],[-74.134353,40.641887],[-74.134303,40.641754],[-74.133497,40.641717],[-74.133467,40.641596],[-74.133415,40.641547],[-74.133228,40.641457],[-74.132992,40.641417],[-74.132825,40.64142],[-74.132562,40.641532],[-74.132515,40.641589],[-74.13242,40.641623],[-74.132403,40.641704],[-74.131256,40.641597],[-74.131462,40.64131],[-74.131081,40.641027],[-74.130736,40.640935],[-74.130325,40.640778],[-74.130176,40.641034],[-74.130123,40.641017],[-74.130279,40.640761],[-74.130184,40.640724],[-74.129678,40.641385],[-74.129491,40.641355],[-74.129977,40.64073],[-74.129878,40.640687],[-74.129921,40.640629],[-74.129307,40.640337],[-74.12923,40.640484],[-74.128933,40.640414],[-74.128918,40.640498],[-74.128995,40.641189],[-74.128907,40.641195],[-74.128812,40.640227],[-74.128132,40.64025],[-74.128109,40.64014],[-74.127527,40.640155],[-74.127396,40.639975],[-74.127391,40.63983],[-74.127245,40.639767],[-74.127148,40.639311],[-74.127027,40.639319],[-74.127061,40.639515],[-74.127099,40.639627],[-74.127124,40.639863],[-74.127088,40.640043],[-74.127082,40.640161],[-74.127054,40.640242],[-74.126448,40.640378],[-74.126346,40.640376],[-74.126223,40.640339],[-74.12607,40.640254],[-74.1262,40.641264],[-74.126342,40.641253],[-74.126368,40.641332],[-74.12564,40.641418],[-74.125633,40.641342],[-74.126133,40.641264],[-74.125995,40.640231],[-74.125698,40.640156],[-74.125578,40.640147],[-74.124878,40.64024],[-74.124697,40.640239],[-74.124481,40.640183],[-74.124156,40.640135],[-74.123951,40.640229],[-74.123637,40.640343],[-74.123544,40.640406],[-74.123548,40.640491],[-74.123407,40.640589],[-74.122856,40.640821],[-74.12278,40.640771],[-74.122652,40.640627],[-74.122604,40.640597],[-74.122573,40.640622],[-74.122797,40.640901],[-74.12288,40.640956],[-74.122907,40.641019],[-74.122906,40.641073],[-74.122857,40.641138],[-74.122859,40.64123],[-74.122826,40.641294],[-74.122782,40.641339],[-74.121959,40.641447],[-74.121902,40.641401],[-74.121841,40.641406],[-74.121866,40.641556],[-74.121948,40.641546],[-74.121943,40.641506],[-74.121981,40.641501],[-74.121991,40.641555],[-74.121853,40.641581],[-74.121846,40.641549],[-74.121834,40.641552],[-74.121807,40.641412],[-74.121758,40.641423],[-74.121788,40.641557],[-74.121771,40.64156],[-74.121779,40.641593],[-74.121559,40.641622],[-74.121553,40.641612],[-74.121761,40.641574],[-74.121724,40.641429],[-74.121448,40.641503],[-74.121387,40.641485],[-74.121326,40.641607],[-74.121305,40.641601],[-74.121373,40.641476],[-74.121312,40.641453],[-74.121195,40.641675],[-74.121172,40.641669],[-74.121281,40.641432],[-74.121215,40.641397],[-74.121101,40.641613],[-74.121077,40.641607],[-74.12118,40.641383],[-74.120713,40.641046],[-74.120528,40.641063],[-74.119935,40.641198],[-74.119971,40.641315],[-74.119607,40.64138],[-74.119957,40.642209],[-74.119854,40.642236],[-74.11953,40.64147],[-74.119466,40.641479],[-74.11945,40.641435],[-74.119426,40.641424],[-74.119097,40.641473],[-74.119481,40.642355],[-74.1194,40.642379],[-74.119003,40.641465],[-74.118616,40.64153],[-74.118605,40.641563],[-74.118688,40.641798],[-74.118652,40.641809],[-74.118875,40.642387],[-74.118899,40.642384],[-74.118961,40.642505],[-74.118836,40.642542],[-74.118645,40.64204],[-74.118584,40.641997],[-74.118402,40.64153],[-74.118155,40.641594],[-74.118208,40.64175],[-74.117917,40.641826],[-74.117796,40.641783],[-74.117699,40.641543],[-74.117121,40.641668],[-74.117224,40.641844],[-74.116722,40.642032],[-74.117225,40.643027],[-74.117149,40.64305],[-74.116958,40.642654],[-74.11674,40.642282],[-74.116666,40.642107],[-74.11661,40.642125],[-74.1166,40.64211],[-74.1163,40.642203],[-74.116332,40.642271],[-74.116305,40.64228],[-74.116753,40.643162],[-74.11667,40.64319],[-74.116246,40.642347],[-74.116219,40.642355],[-74.116142,40.642216],[-74.115351,40.642471],[-74.115117,40.642785],[-74.114807,40.642977],[-74.114781,40.642958],[-74.113797,40.64361],[-74.114041,40.644043],[-74.113951,40.644137],[-74.112888,40.644532],[-74.112851,40.644474],[-74.113857,40.644076],[-74.113871,40.644045],[-74.113654,40.643688],[-74.113434,40.643821],[-74.11333,40.643723],[-74.111808,40.644611],[-74.111903,40.644706],[-74.111161,40.645096],[-74.111116,40.645047],[-74.111766,40.644706],[-74.111725,40.644659],[-74.110923,40.645082],[-74.109739,40.645464],[-74.108865,40.645579],[-74.108236,40.645563],[-74.104722,40.645564],[-74.104646,40.64563],[-74.104396,40.64567],[-74.104341,40.645721],[-74.104124,40.64574],[-74.104022,40.645638],[-74.103915,40.645614],[-74.103764,40.645609],[-74.10365,40.645655],[-74.103073,40.645638],[-74.102317,40.645543],[-74.101683,40.645407],[-74.100605,40.645132],[-74.100132,40.645064],[-74.098801,40.645047],[-74.0985,40.64537],[-74.096046,40.645373],[-74.094685,40.645556],[-74.093627,40.645839],[-74.092988,40.645973],[-74.093005,40.646076],[-74.091357,40.646701],[-74.09096,40.646819],[-74.089923,40.647176],[-74.089398,40.64731],[-74.08836,40.647908],[-74.088274,40.647921],[-74.088241,40.647902],[-74.087674,40.648235],[-74.086345,40.6487],[-74.085708,40.648881],[-74.085227,40.648926],[-74.084844,40.648891],[-74.084694,40.648857],[-74.083903,40.648582],[-74.082566,40.648316],[-74.082213,40.64828]]]]},"properties":{"boro":"Staten Island","borocode":5}}]}