{"type":"FeatureCollection","features":[{"type":"Feature","geometry":{"type":"Point","coordinates":[-74.070475,40.611716]},"properties":{"name":"Battalion 21/Engine 152","addr":"256 Hylan Blvd."}},{"type":"Feature","geometry":{"type":"Point","coordinates":[-74.122039,40.634384]},"properties":{"name":"Battalion 22/Ladder 79","addr":"1189 Castleton Avenue"}},{"type":"Feature","geometry":{"type":"Point","coordinates":[-74.147405,40.543104]},"properties":{"name":"Battalion 23/Engine 162/Ladder 82","addr":"256 Nelson Ave."}},{"type":"Feature","geometry":{"type":"Point","coordinates":[-74.089242,40.60732]},"properties":{"name":"Division 8/Engine 160/Rescue 5","addr":"1850 Clove Road"}},{"type":"Feature","geometry":{"type":"Point","coordinates":[-74.23895,40.512739]},"properties":{"name":"Engine 151/Ladder 76","addr":"7219 Amboy Road"}},{"type":"Feature","geometry":{"type":"Point","coordinates":[-74.077692,40.625033]},"properties":{"name":"Engine 153/Ladder 77","addr":"74 Broad Street"}},{"type":"Feature","geometry":{"type":"Point","coordinates":[-74.087694,40.637547]},"properties":{"name":"Engine 155/Ladder 78","addr":"14 Brighton Avenue"}},{"type":"Feature","geometry":{"type":"Point","coordinates":[-74.116719,40.630985]},"properties":{"name":"Engine 156","addr":"412 Broadway"}},{"type":"Feature","geometry":{"type":"Point","coordinates":[-74.135394,40.636191]},"properties":{"name":"Engine 157/Ladder 80","addr":"1573 Castleton Avenue"}},{"type":"Feature","geometry":{"type":"Point","coordinates":[-74.160052,40.635265]},"properties":{"name":"Engine 158","addr":"65 Harbor Road"}},{"type":"Feature","geometry":{"type":"Point","coordinates":[-74.100608,40.590714]},"properties":{"name":"Engine 159","addr":"1592 Richmond Road"}},{"type":"Feature","geometry":{"type":"Point","coordinates":[-74.069879,40.596763]},"properties":{"name":"Engine 161/Ladder 81","addr":"278 McClean Avenue"}},{"type":"Feature","geometry":{"type":"Point","coordinates":[-74.130815,40.615247]},"properties":{"name":"Engine 163/Ladder 83","addr":"875 Jewett Avenue"}},{"type":"Feature","geometry":{"type":"Point","coordinates":[-74.196059,40.535418]},"properties":{"name":"Engine 164/Ladder 84","addr":"1560 Drumgoole Road West"}},{"type":"Feature","geometry":{"type":"Point","coordinates":[-74.123714,40.576077]},"properties":{"name":"Engine 165/Ladder 85","addr":"3067 Richmond Road"}},{"type":"Feature","geometry":{"type":"Point","coordinates":[-74.158172,40.614264]},"properties":{"name":"Engine 166/Ladder 86","addr":"1400 Richmond Avenue"}},{"type":"Feature","geometry":{"type":"Point","coordinates":[-74.175479,40.554191]},"properties":{"name":"Engine 167/Ladder 87","addr":"345 Annadale Road"}},{"type":"Feature","geometry":{"type":"Point","coordinates":[-74.213083,40.553942]},"properties":{"name":"Engine 168","addr":"1100 Rossville Ave"}},{"type":"Feature","geometry":{"type":"Point","coordinates":[-74.07243,40.629954]},"properties":{"name":"Marine 9","addr":"305 Front Street"}},{"type":"Feature","geometry":{"type":"Point","coordinates":[-74.180532,40.59793]},"properties":{"name":"Staten Island Borough Command/Squad 8","addr":"3730 Victory Boulevard"}}]}